street_name,place,address,lat,lon,importance
ANG MO KIO AVE 1,ANG MO KIO AVE 1 Singapore,"Ang Mo Kio Avenue 1, Ang Mo Kio, Singapore, Central, 560218, Singapore",1.364394,103.8432576,0.71
ANG MO KIO AVE 3,ANG MO KIO AVE 3 Singapore,"Ang Mo Kio Avenue 3, Ang Mo Kio, Singapore, Central, 560573, Singapore",1.3699003,103.8539149,0.71
ANG MO KIO AVE 4,ANG MO KIO AVE 4 Singapore,"Ang Mo Kio Avenue 4, Ang Mo Kio, Singapore, Central, 569898, Singapore",1.3739589,103.837396,0.71
ANG MO KIO AVE 10,ANG MO KIO AVE 10 Singapore,"Ang Mo Kio Avenue 10, Ang Mo Kio, Singapore, Central, 569739, Singapore",1.3590003,103.8546995,0.71
ANG MO KIO AVE 5,ANG MO KIO AVE 5 Singapore,"Ang Mo Kio Avenue 5, Ang Mo Kio, Singapore, Central, 569869, Singapore",1.3762932,103.857298,0.71
ANG MO KIO AVE 8,ANG MO KIO AVE 8 Singapore,"Ang Mo Kio Avenue 8, Ang Mo Kio, Singapore, Central, 569299, Singapore",1.3652843,103.8517932,0.71
ANG MO KIO AVE 6,ANG MO KIO AVE 6 Singapore,"Ang Mo Kio Avenue 6, Ang Mo Kio, Singapore, Central, 569878, Singapore",1.3769128,103.84469,0.71
ANG MO KIO AVE 9,ANG MO KIO AVE 9 Singapore,"Ang Mo Kio Avenue 9, Ang Mo Kio, Singapore, Central, 560622, Singapore",1.38312,103.840111,0.71
ANG MO KIO AVE 2,ANG MO KIO AVE 2 Singapore,"Ang Mo Kio Avenue 2, Ang Mo Kio, Singapore, Central, 569948, Singapore",1.3762364,103.834221,0.71
BEDOK RESERVOIR RD,BEDOK RESERVOIR RD Singapore,"Bedok Reservoir Road, Bedok, Northeast, 470746, Singapore",1.3370467,103.9207517,0.41
BEDOK NTH ST 3,BEDOK north ST 3 Singapore,"Bedok North Street 3, Bedok, Southeast, 460534, Singapore",1.3326945,103.9251009,0.61
BEDOK STH RD,BEDOK STH RD Singapore,"Bedok South Road, Bedok, Southeast, 460152, Singapore",1.317981,103.9480772,0.31
NEW UPP CHANGI RD,NEW upper CHANGI RD Singapore,"New Upper Changi Road, Simpang Bedok, Bedok, Southeast, 465407, Singapore",1.3277614,103.9485584,0.51
BEDOK NTH RD,BEDOK north RD Singapore,"Bedok North Road, Bedok, Southeast, 460414, Singapore",1.3302901,103.9294051,0.41
BEDOK STH AVE 1,BEDOK STH AVE 1 Singapore,"Bedok South Avenue 1, Bedok, Southeast, 449295, Singapore",1.3115486,103.9342734,0.51
CHAI CHEE RD,CHAI CHEE RD Singapore,"Chai Chee Road, Bedok, Southeast, 460806, Singapore",1.3263484,103.9234585,0.41
CHAI CHEE DR,CHAI CHEE DR Singapore,"Chai Chee Drive, Bedok, Southeast, 460055, Singapore",1.3263799,103.9189661,0.51
BEDOK NTH AVE 4,BEDOK north AVE 4 Singapore,"Bedok North Avenue 4, Simpang Bedok, Bedok, Southeast, 460095, Singapore",1.3340399,103.9414261,0.61
BEDOK STH AVE 3,BEDOK STH AVE 3 Singapore,"Bedok South Avenue 3, Bedok, Southeast, 460156, Singapore",1.3173048,103.9451555,0.51
BEDOK STH AVE 2,BEDOK STH AVE 2 Singapore,"Bedok South Avenue 2, Bedok, Southeast, 465010, Singapore",1.3219702,103.9375029,0.51
BEDOK NTH ST 2,BEDOK north ST 2 Singapore,"Bedok North Street 2, Bedok, Southeast, 460140, Singapore",1.3301885,103.9359224,0.61
BEDOK NTH ST 4,BEDOK north ST 4 Singapore,"Bedok North Street 4, Bedok, Southeast, 460097, Singapore",1.3325621,103.9396609,0.61
BEDOK NTH AVE 2,BEDOK north AVE 2 Singapore,"Bedok North Avenue 2, Bedok, Southeast, 460515, Singapore",1.3325109,103.9302384,0.61
BEDOK NTH AVE 3,BEDOK north AVE 3 Singapore,"Bedok North Avenue 3, Bedok, Southeast, 460506, Singapore",1.3324192,103.9341628,0.61
BEDOK NTH AVE 1,BEDOK north AVE 1 Singapore,"Bedok North Avenue 1, Bedok, Southeast, 464547, Singapore",1.3304014,103.9264027,0.61
BEDOK NTH ST 1,BEDOK north ST 1 Singapore,"Bedok North Street 1, Bedok, Southeast, 469661, Singapore",1.326507,103.9291667,0.61
CHAI CHEE ST,CHAI CHEE ST Singapore,"Chai Chee Street, Bedok, Southeast, 469030, Singapore",1.3280788,103.9198588,0.51
SIN MING RD,SIN MING RD Singapore,"Sin Ming Road, Bishan, Singapore, Central, 575625, Singapore",1.3573583,103.8386749,0.41
SHUNFU RD,SHUNFU RD Singapore,"Shunfu Road, Bishan, Singapore, Central, 576149, Singapore",1.3513259,103.8400297,0.31
BT BATOK ST 11,bukit BATOK ST 11 Singapore,"Bukit Batok Street 11, Bukit Batok, Southwest, 659674, Singapore",1.3495842,103.7425846,0.61
BT BATOK WEST AVE 8,bukit BATOK WEST AVE 8 Singapore,"Bukit Batok West Avenue 8, Bukit Batok, Southwest, 658962, Singapore",1.3474402,103.7403821,0.71
BT BATOK WEST AVE 6,bukit BATOK WEST AVE 6 Singapore,"Bukit Batok West Avenue 6, Bukit Batok, Southwest, 651188, Singapore",1.3468233,103.7456901,0.71
BT BATOK ST 21,bukit BATOK ST 21 Singapore,"Bukit Batok Street 21, Bukit Batok, Southwest, 650211, Singapore",1.3468302,103.750573,0.61
BT BATOK EAST AVE 5,bukit BATOK EAST AVE 5 Singapore,"Bukit Batok East Avenue 5, Bukit Batok, Southwest, 650279, Singapore",1.3485136,103.7571593,0.71
BT BATOK EAST AVE 4,bukit BATOK EAST AVE 4 Singapore,"Bukit Batok East Avenue 4, Bukit Batok, Southwest, 650272, Singapore",1.3486373,103.7573189,0.71
HILLVIEW AVE,HILLVIEW AVE Singapore,"Hillview Avenue, Bukit Batok, Southwest, 667970, Singapore",1.361615,103.7645992,0.41
BT BATOK CTRL,bukit BATOK central Singapore,"Bukit Batok Central (neighbourhood) Park, Bukit Batok, Southwest, 651105, Singapore",1.34844155,103.7463789,0.56
BT BATOK ST 31,bukit BATOK ST 31 Singapore,"Bukit Batok Street 31, Bukit Gombak, Bukit Batok, Southwest, 650369, Singapore",1.3597962,103.7509265,0.61
BT BATOK EAST AVE 3,bukit BATOK EAST AVE 3 Singapore,"Bukit Batok East Avenue 3, Bukit Batok, Southwest, 658064, Singapore",1.3401314,103.7598087,0.71
TAMAN HO SWEE,TAMAN HO SWEE Singapore,"Taman Ho Swee, Bukit Ho Swee View, Bukit Merah, Singapore, Central, 161022, Singapore",1.2878226,103.831535,0.485
TELOK BLANGAH CRES,TELOK BLANGAH CRES Singapore,"Telok Blangah Crescent, Bukit Merah, Singapore, Central, Singapore",1.2774161,103.8190622,0.61
BEO CRES,BEO CRES Singapore,"The Beo Crescent, Bukit Merah, Singapore, Central, Singapore",1.2891495,103.82677,0.51
TELOK BLANGAH DR,TELOK BLANGAH DR Singapore,"Telok Blangah Drive, Bukit Merah, Singapore, Central, 109257, Singapore",1.272321,103.8119045,0.51
DEPOT RD,DEPOT RD Singapore,"Depot Road, Bukit Merah, Singapore, Central, 109754, Singapore",1.2815679,103.8110375,0.31
TELOK BLANGAH RISE,TELOK BLANGAH RISE Singapore,"Telok Blangah Rise, Radin Mas, Bukit Merah, Singapore, Central, 098915, Singapore",1.2737061,103.8201739,0.51
JLN BT MERAH,jalan bukit MERAH Singapore,"Jalan Bukit Merah, Bukit Merah, Singapore, Central, 169207, Singapore",1.2816289,103.8242173,0.51
HENDERSON RD,HENDERSON RD Singapore,"Henderson Road, Bukit Merah, Singapore, Central, 159545, Singapore",1.2833245,103.8201387,0.31
INDUS RD,INDUS RD Singapore,"Indus Road, Bukit Merah, Singapore, Central, 169640, Singapore",1.290414,103.8296358,0.31
BT MERAH VIEW,bukit MERAH VIEW Singapore,"Bukit Merah View, Bukit Merah, Singapore, Central, Singapore",1.28350915,103.8233249,0.61
HENDERSON CRES,HENDERSON CRES Singapore,"Henderson Crescent, Hendersonville, Bukit Merah, Singapore, Central, 151106, Singapore",1.2891747,103.8227354,0.385
BT PURMEI RD,bukit PURMEI RD Singapore,"Bukit Purmei Road, Bukit Purmei Ville, Bukit Merah, Singapore, Central, 90112, Singapore",1.273715,103.8259825,0.41
TELOK BLANGAH HTS,TELOK BLANGAH HTS Singapore,"Telok Blangah Heights, Bukit Merah, Singapore, Central, 100059, Singapore",1.2750703,103.8147364,0.51
EVERTON PK,EVERTON PK Singapore,"Everton Park, Bukit Merah, Singapore, Central, Singapore",1.2771286,103.8393679,0.41
KG BAHRU HILL,kampong BAHRU HILL Singapore,"Kampong Bahru, Jalan Noordin, North-Eastern Islands, Southeast, 508309, Singapore",1.4175875,103.9695481,0.311
REDHILL CL,REDHILL CL Singapore,"Redhill Close, Redhill Gardens, Bukit Merah, Singapore, Central, 151012, Singapore",1.2858773,103.8166034,0.41
HOY FATT RD,HOY FATT RD Singapore,"Hoy Fatt Road, Bukit Merah, Singapore, Central, 151028, Singapore",1.286851,103.8103705,0.41
HAVELOCK RD,HAVELOCK RD Singapore,"Havelock Road, Robertson Quay, Singapore River, Singapore, Central, 169631, Singapore",1.2888303,103.8370051,0.31
JLN KLINIK,jalan KLINIK Singapore,"Jalan Klinik, Bukit Ho Swee Court, Bukit Merah, Singapore, Central, 161022, Singapore",1.2880059,103.8288153,0.385
JLN RUMAH TINGGI,jalan RUMAH TINGGI Singapore,"Jalan Rumah Tinggi, Bukit Merah, Singapore, Central, 150035, Singapore",1.2876848,103.8095884,0.51
JLN BT HO SWEE,jalan bukit HO SWEE Singapore,"Jalan Bukit Ho Swee, Bukit Merah, Singapore, Central, 169567, Singapore",1.2881198,103.8255673,0.61
KIM CHENG ST,KIM CHENG ST Singapore,"Kim Cheng Street, Tiong Bahru Estate, Bukit Merah, Singapore, Central, 169715, Singapore",1.2845581,103.8319423,0.51
MOH GUAN TER,MOH GUAN TER Singapore,"Moh Guan Terrace, Tiong Bahru Estate, Bukit Merah, Singapore, Central, 160078, Singapore",1.2837705,103.8309072,0.51
TELOK BLANGAH WAY,TELOK BLANGAH WAY Singapore,"Telok Blangah Way, Bukit Merah, Singapore, Central, 098915, Singapore",1.2765833,103.8184943,0.51
KIM TIAN RD,KIM TIAN RD Singapore,"Kim Tian Road, Bukit Merah, Singapore, Central, 169252, Singapore",1.2846609,103.8294951,0.41
KIM TIAN PL,KIM TIAN PL Singapore,"Kim Tian (Star) Hotel, 4, Lorong 6 Geylang, Geylang, Southeast, 399166, Singapore",1.3114355,103.8762403,0.311
EMPRESS RD,EMPRESS RD Singapore,"Empress Road, Tanglin, Singapore, Central, 268853, Singapore",1.3166544,103.8068798,0.31
QUEEN'S RD,QUEEN'S RD Singapore,"Queen's Road, Bukit Timah, Northwest, 268097, Singapore",1.31932,103.8081976,0.41
FARRER RD,FARRER RD Singapore,"Farrer Road, 71, Farrer Road, Tanglin, Singapore, Central, 268853, Singapore",1.31748125,103.8075626,0.59696034
JLN KUKOH,jalan KUKOH Singapore,"Jalan Kukoh, Chinatown, Outram, Singapore, Central, 169875, Singapore",1.2875799,103.8396593,0.385
OUTRAM PK,OUTRAM PK Singapore,"Outram Park, Bukit Pasoh Road, Chinatown, Outram, Singapore, Central, 088765, Singapore",1.2808682,103.8398841,0.621369233
SHORT ST,SHORT ST Singapore,"Short Street, Rochor, Singapore, Central, 189970, Singapore",1.3030276,103.8511011,0.41
SELEGIE RD,SELEGIE RD Singapore,"Selegie Road, Rochor, Singapore, Central, 228673, Singapore",1.3049244,103.85081,0.31
UPP CROSS ST,upper CROSS ST Singapore,"Upper Cross Street, Chinatown, Outram, Singapore, Central, 160051, Singapore",1.2872235,103.8424948,0.51
WATERLOO ST,WATERLOO ST Singapore,"Waterloo Street, Rochor, Singapore, Central, 188977, Singapore",1.2997254,103.8523417,0.41
QUEEN ST,QUEEN ST Singapore,"Queen Street, Rochor, Singapore, Central, 188546, Singapore",1.3013332,103.8549515,0.41
BUFFALO RD,BUFFALO RD Singapore,"Buffalo Road, Rochor, Singapore, Central, 229900, Singapore",1.3072583,103.8500308,0.31
ROWELL RD,ROWELL RD Singapore,"Rowell Road, Rochor, Singapore, Central, 200641, Singapore",1.3079022,103.8559131,0.31
ROCHOR RD,ROCHOR RD Singapore,"Rochor Road, Rochor, Singapore, Central, 189969, Singapore",1.3029591,103.8538529,0.31
BAIN ST,BAIN ST Singapore,"Bain Street, Downtown Core, Singapore, Central, 188726, Singapore",1.2968452,103.8543064,0.41
SMITH ST,SMITH ST Singapore,"Smith Street, Chinatown, Outram, Singapore, Central, 058972, Singapore",1.2831765,103.8426752,0.41
VEERASAMY RD,VEERASAMY RD Singapore,"Veerasamy Road, Rochor, Singapore, Central, 209753, Singapore",1.3075263,103.8539906,0.31
TECK WHYE AVE,TECK WHYE AVE Singapore,"Teck Whye Avenue, Choa Chu Kang, Southwest, 680026, Singapore",1.3775876,103.756164,0.51
TECK WHYE LANE,TECK WHYE LANE Singapore,"Teck Whye Lane, Choa Chu Kang, Southwest, 680137, Singapore",1.3796994,103.7527165,0.51
CLEMENTI AVE 3,CLEMENTI AVE 3 Singapore,"Clementi Avenue 3, Clementi, Southwest, 120431, Singapore",1.3140358,103.7635088,0.51
WEST COAST DR,WEST COAST DR Singapore,"West Coast Drive, Clementi, Southwest, 127790, Singapore",1.313183,103.7599415,0.51
CLEMENTI AVE 2,CLEMENTI AVE 2 Singapore,"Clementi Avenue 2, Clementi, Southwest, 120331, Singapore",1.3137279,103.7684354,0.51
CLEMENTI AVE 5,CLEMENTI AVE 5 Singapore,"Clementi Avenue 5, Clementi, Southwest, 120345, Singapore",1.3173305,103.7691009,0.51
CLEMENTI AVE 4,CLEMENTI AVE 4 Singapore,"Clementi Avenue 4, Clementi, Southwest, 122311, Singapore",1.3194174,103.7663111,0.51
CLEMENTI AVE 1,CLEMENTI AVE 1 Singapore,"Clementi Avenue 1, Clementi, Southwest, 129956, Singapore",1.3079966,103.770297,0.51
WEST COAST RD,WEST COAST RD Singapore,"West Coast Road, Clementi, Southwest, 600409, Singapore",1.3177211,103.7494615,0.41
CLEMENTI WEST ST 1,CLEMENTI WEST ST 1 Singapore,"Clementi West Street 1, Clementi, Southwest, 120601, Singapore",1.3048862,103.7662478,0.585
CLEMENTI WEST ST 2,CLEMENTI WEST ST 2 Singapore,"Clementi West Street 2, Clementi, Southwest, 120720, Singapore",1.3020268,103.763772,0.61
CLEMENTI ST 13,CLEMENTI ST 13 Singapore,"Clementi Street 13, Sunset Way Residence, Ulu Pandan, Northwest, 120113, Singapore",1.3233254,103.7705187,0.485
C'WEALTH AVE WEST,C'WEALTH AVE WEST Singapore,"Commonwealth Station Exit A/D, Commonwealth Avenue, Queenstown, Singapore, Central, 149735, Singapore",1.3020355,103.7983964,0.411
CLEMENTI AVE 6,CLEMENTI AVE 6 Singapore,"Clementi Avenue 6, Clementi, Southwest, 129814, Singapore",1.3303122,103.7640138,0.51
CLEMENTI ST 14,CLEMENTI ST 14 Singapore,"Clementi Street 14, Sunset Way Residence, Clementi, Northwest, 120103, Singapore",1.3226864,103.7683005,0.485
CIRCUIT RD,CIRCUIT RD Singapore,"Circuit Road, Geylang, Southeast, 371066, Singapore",1.3265711,103.8882676,0.31
MACPHERSON LANE,MACPHERSON LANE Singapore,"MacPherson Lane, Macpherson View, Geylang, Southeast, 371027, Singapore",1.3312482,103.8854337,0.41
JLN PASAR BARU,jalan PASAR BARU Singapore,"Malay Heritage Centre, 85, Sultan Gate, Rochor, Singapore, Central, 198501, Singapore",1.30286515,103.8598269,0.510470108
GEYLANG SERAI,GEYLANG SERAI Singapore,"Geylang Serai, Geylang, Southeast, 403002, Singapore",1.3170114,103.897395,0.41
EUNOS CRES,EUNOS CRES Singapore,"Eunos Crescent, Geylang, Southeast, Singapore",1.3207219,103.9036667,0.51
SIMS DR,SIMS DR Singapore,"Sims Drive, Geylang, Southeast, 380045, Singapore",1.3168076,103.8779846,0.41
ALJUNIED CRES,ALJUNIED CRES Singapore,"Aljunied Crescent, Geylang East Central, Geylang, Southeast, 380108, Singapore",1.3193329,103.8857789,0.41
GEYLANG EAST AVE 1,GEYLANG EAST AVE 1 Singapore,"Geylang East Avenue 1, Geylang, Southeast, 389780, Singapore",1.3162265,103.8850665,0.61
DAKOTA CRES,DAKOTA CRES Singapore,"Dakota Crescent, Marine Parade, Southeast, 397971, Singapore",1.3081224,103.8879572,0.41
PINE CL,PINE CL Singapore,"Pine Close, Geylang, Southeast, 399718, Singapore",1.3088094,103.8824903,0.385
HAIG RD,HAIG RD Singapore,"Haig Road, Geylang, Southeast, 437157, Singapore",1.315504,103.8948204,0.31
BALAM RD,BALAM RD Singapore,"Balam Road, Balam Gardens, Geylang, Southeast, 371028, Singapore",1.3307107,103.8873169,0.385
JLN DUA,jalan DUA Singapore,"Jalan Dua, Geylang, Southeast, 391092, Singapore",1.3089911,103.8889383,0.41
GEYLANG EAST CTRL,GEYLANG EAST central Singapore,"Geylang East Central, Geylang, Southeast, Singapore",1.32027145,103.8873826,0.61
EUNOS RD 5,EUNOS RD 5 Singapore,"Eunos Road 5, Geylang, Southeast, 048542, Singapore",1.318368,103.8965744,0.41
HOUGANG AVE 3,HOUGANG AVE 3 Singapore,"Hougang Avenue 3, Hougang, Northeast, 530024, Singapore",1.3653211,103.8911458,0.51
HOUGANG AVE 5,HOUGANG AVE 5 Singapore,"Hougang Avenue 5, Hougang, Northeast, 530358, Singapore",1.3683249,103.895456,0.51
HOUGANG AVE 1,HOUGANG AVE 1 Singapore,"Hougang Avenue 1, Hougang, Northeast, 530110, Singapore",1.355611,103.8899838,0.51
HOUGANG ST 22,HOUGANG ST 22 Singapore,"Hougang Street 22, Hougang, Northeast, 530104, Singapore",1.3556904,103.8903121,0.51
HOUGANG AVE 10,HOUGANG AVE 10 Singapore,"Hougang Avenue 10, Hougang, Northeast, 540424, Singapore",1.3745786,103.8949557,0.51
LOR AH SOO,lorong AH SOO Singapore,"Lorong Ah Soo, Northeast, 530145, Singapore",1.3520481,103.8845867,0.685
HOUGANG ST 11,HOUGANG ST 11 Singapore,"Hougang Street 11, Hougang, Northeast, 534075, Singapore",1.35194,103.880969,0.51
HOUGANG AVE 7,HOUGANG AVE 7 Singapore,"Hougang Avenue 7, Hougang, Northeast, 534037, Singapore",1.3638894,103.8961696,0.51
HOUGANG ST 21,HOUGANG ST 21 Singapore,"Hougang Street 21, Hougang, Northeast, 530211, Singapore",1.3593831,103.8887502,0.51
TEBAN GDNS RD,TEBAN GDNS RD Singapore,"Teban Gardens Road, Teban Gardens, Jurong East, Southwest, 600049, Singapore",1.3212283,103.7384577,0.41
JURONG EAST AVE 1,JURONG EAST AVE 1 Singapore,"Jurong East Avenue 1, Jurong East, Southwest, 600245, Singapore",1.3414071,103.7420766,0.61
JURONG EAST ST 32,JURONG EAST ST 32 Singapore,"Jurong East Street 32, Jurong East, Southwest, 609477, Singapore",1.3446546,103.733661,0.61
JURONG EAST ST 13,JURONG EAST ST 13 Singapore,"Jurong East Street 13, Jurong East, Southwest, 609650, Singapore",1.3376412,103.7371532,0.61
JURONG EAST ST 21,JURONG EAST ST 21 Singapore,"Jurong East Street 21, Jurong East, Southwest, 601287, Singapore",1.3379048,103.7434385,0.61
JURONG EAST ST 24,JURONG EAST ST 24 Singapore,"Jurong East Street 24, Jurong East, Southwest, 600244, Singapore",1.3426231,103.7416354,0.61
JURONG EAST ST 31,JURONG EAST ST 31 Singapore,"Jurong East Street 31, Jurong East, Southwest, 300342, Singapore",1.3463532,103.7317671,0.61
PANDAN GDNS,PANDAN GDNS Singapore,"Pandan Gardens, Jurong East, Southwest, Singapore",1.31941495,103.7483729,0.397641223
YUNG KUANG RD,YUNG KUANG RD Singapore,"Yung Kuang Road, Jurong West, Southwest, 611166, Singapore",1.3316204,103.7220244,0.41
HO CHING RD,HO CHING RD Singapore,"Ho Ching Road, Jurong East, Southwest, 618645, Singapore",1.3342656,103.7250118,0.41
HU CHING RD,HU CHING RD Singapore,"Hu Ching Road, Jurong East, Southwest, 612138, Singapore",1.3289999,103.724826,0.41
BOON LAY DR,BOON LAY DR Singapore,"Boon Lay Drive, Boon Lay, Jurong West, Southwest, 649925, Singapore",1.3428477,103.711129,0.51
BOON LAY AVE,BOON LAY AVE Singapore,"Boon Lay Avenue, Boon Lay, Jurong West, Southwest, 640213, Singapore",1.3499177,103.7128689,0.51
BOON LAY PL,BOON LAY PL Singapore,"Boon Lay Place, Jurong West, Southwest, Singapore",1.3475171,103.7138799,0.66
JURONG WEST ST 52,JURONG WEST ST 52 Singapore,"Jurong West Street 52, Jurong West, Southwest, 640517, Singapore",1.3460568,103.7194629,0.61
JURONG WEST ST 41,JURONG WEST ST 41 Singapore,"Jurong West Street 41, Jurong West, Southwest, 640480, Singapore",1.3465505,103.723847,0.61
JURONG WEST AVE 1,JURONG WEST AVE 1 Singapore,"Jurong West Avenue 1, Jurong West, Southwest, 640536, Singapore",1.3501171,103.7164424,0.61
JURONG WEST ST 42,JURONG WEST ST 42 Singapore,"Jurong West Street 42, Jurong West, Southwest, 640433, Singapore",1.3529581,103.7234155,0.61
JLN BATU,jalan BATU Singapore,"Jalan Batu, Kallang, Southeast, 436593, Singapore",1.301128,103.8829812,0.41
ST. GEORGE'S RD,ST. GEORGE'S RD Singapore,"Saint George's Road, Kallang, Singapore, Central, 328147, Singapore",1.3219991,103.8634944,0.41
NTH BRIDGE RD,north BRIDGE RD Singapore,"North Bridge Road, Kallang, Singapore, Central, 190465, Singapore",1.305736,103.8644023,0.41
FRENCH RD,FRENCH RD Singapore,"French Road, Kallang, Singapore, Central, 208737, Singapore",1.3081941,103.8615047,0.31
BEACH RD,BEACH RD Singapore,"Beach Road, Singapore, Central, 190018, Singapore",1.3030517,103.8622669,0.522408728
WHAMPOA DR,WHAMPOA DR Singapore,"Whampoa Drive, Novena, Singapore, Central, 320086, Singapore",1.3227157,103.855799,0.41
UPP BOON KENG RD,upper BOON KENG RD Singapore,"Upper Boon Keng Road, Kallang, Singapore, Central, 381008, Singapore",1.3133946,103.8695485,0.51
BENDEMEER RD,BENDEMEER RD Singapore,"Bendemeer Road, Kallang, Singapore, Central, 330053, Singapore",1.3243486,103.8676945,0.31
WHAMPOA WEST,WHAMPOA WEST Singapore,"Whampoa West, Kallang, Singapore, Central, 339943, Singapore",1.3198991,103.864694,0.41
LOR LIMAU,lorong LIMAU Singapore,"Lorong Limau, Novena, Singapore, Central, 320089, Singapore",1.3239704,103.8552022,0.41
KALLANG BAHRU,KALLANG BAHRU Singapore,"Kallang Bahru, Kallang, Singapore, Central, 339351, Singapore",1.3207468,103.8707429,0.41
GEYLANG BAHRU,GEYLANG BAHRU Singapore,"Geylang Bahru, Kallang, Singapore, Central, 339351, Singapore",1.3209154,103.8712902,0.41
DORSET RD,DORSET RD Singapore,"Dorset Road, Farrer Park Gardens, Kallang, Singapore, Central, 219458, Singapore",1.3131313,103.8499868,0.41
OWEN RD,OWEN RD Singapore,"Owen Road, Farrer Park Gardens, Kallang, Singapore, Central, 218922, Singapore",1.313624,103.8530998,0.41
KG ARANG RD,kampong ARANG RD Singapore,"Kampong Arang Road, Kallang, Southeast, 438178, Singapore",1.3012664,103.8846159,0.41
JLN BAHAGIA,jalan BAHAGIA Singapore,"Jalan Bahagia, Novena, Singapore, Central, 327691, Singapore",1.3278885,103.8564145,0.41
MOULMEIN RD,MOULMEIN RD Singapore,"Moulmein Road, Novena, Singapore, Central, 308143, Singapore",1.3188578,103.8475211,0.31
TOWNER RD,TOWNER RD Singapore,"Towner Road, Kallang, Singapore, Central, 320111, Singapore",1.3206001,103.8578367,0.31
JLN RAJAH,jalan RAJAH Singapore,"Jalan Rajah, Novena, Singapore, Central, 329162, Singapore",1.3275894,103.8547477,0.41
KENT RD,KENT RD Singapore,"Kent Road, Kallang, Singapore, Central, 210054, Singapore",1.3170197,103.8529832,0.31
AH HOOD RD,AH HOOD RD Singapore,"Ah Hood Road, Novena, Singapore, Central, 329876, Singapore",1.3273012,103.8448408,0.41
KING GEORGE'S AVE,KING GEORGE'S AVE Singapore,"King George's Avenue, Kallang, Singapore, Central, 208557, Singapore",1.3077127,103.8595308,0.61
CRAWFORD LANE,CRAWFORD LANE Singapore,"Crawford Lane, Crawford Court, Kallang, Singapore, Central, 190466, Singapore",1.3048464,103.8625836,0.385
MARINE CRES,MARINE CRES Singapore,"Marine Crescent, Marine Parade, Southeast, 440058, Singapore",1.3060865,103.9135742,0.41
MARINE DR,MARINE DR Singapore,"Marine Drive, Marine Drive Gardens, Marine Parade, Southeast, 441065, Singapore",1.3031183,103.9093336,0.41
MARINE TER,MARINE TER Singapore,"Marine Terrace, Marine Parade, Southeast, 440054, Singapore",1.3050451,103.9153604,0.41
C'WEALTH CL,C'WEALTH CL Singapore,"Commonwealth Station Exit A/D, Commonwealth Avenue, Queenstown, Singapore, Central, 149735, Singapore",1.3020355,103.7983964,0.311
C'WEALTH DR,C'WEALTH DR Singapore,"Commonwealth Station Exit A/D, Commonwealth Avenue, Queenstown, Singapore, Central, 149735, Singapore",1.3020355,103.7983964,0.311
TANGLIN HALT RD,TANGLIN HALT RD Singapore,"Tanglin Halt Road, Tanglin Halt, Queenstown, Singapore, Central, 140463, Singapore",1.3003118,103.7979386,0.41
C'WEALTH CRES,C'WEALTH CRES Singapore,"Commonwealth Station Exit A/D, Commonwealth Avenue, Queenstown, Singapore, Central, 149735, Singapore",1.3020355,103.7983964,0.311
DOVER RD,DOVER RD Singapore,"Dover Road, Nepal Hill, Pasir Panjang, Southwest, 139967, Singapore",1.2993846,103.7854078,0.31
MARGARET DR,MARGARET DR Singapore,"Margaret Drive, Queenstown, Singapore, Central, 149303, Singapore",1.2968325,103.8083406,0.41
GHIM MOH RD,GHIM MOH RD Singapore,"Ghim Moh Road, Ulu Pandan, Northwest, 270003, Singapore",1.3116995,103.7872679,0.41
DOVER CRES,DOVER CRES Singapore,"Dover Crescent, Rochester Hill, Queenstown, Southwest, 130005, Singapore",1.3043193,103.7821495,0.41
STIRLING RD,STIRLING RD Singapore,"Stirling Road, Queenstown, Singapore, Central, 140165, Singapore",1.2912182,103.8020066,0.31
MEI LING ST,MEI LING ST Singapore,"Mei Ling Street, Queenstown, Singapore, Central, 141148, Singapore",1.2941108,103.8039865,0.51
HOLLAND CL,HOLLAND CL Singapore,"Holland Close, Queenstown, Northwest, 271006, Singapore",1.3073048,103.7960335,0.41
HOLLAND AVE,HOLLAND AVE Singapore,"Holland Avenue, Bukit Timah, Northwest, 278967, Singapore",1.3102774,103.7956497,0.41
HOLLAND DR,HOLLAND DR Singapore,"Holland Drive, Ulu Pandan, Northwest, 271021, Singapore",1.3112157,103.7926426,0.41
DOVER CL EAST,DOVER CL EAST Singapore,"Dover Close East, Nepal Hill, Queenstown, Southwest, 138502, Singapore",1.3035578,103.7872128,0.51
SELETAR WEST FARMWAY 6,SELETAR WEST FARMWAY 6 Singapore,"Seletar West Farmway 6, Seng Kang, Central, 798061, Singapore",1.3976553,103.8629415,0.61
LOR LEW LIAN,lorong LEW LIAN Singapore,"Lorong Lew Lian, Serangoon, Southeast, 531003, Singapore",1.35091,103.8765454,0.51
SERANGOON NTH AVE 1,SERANGOON north AVE 1 Singapore,"Serangoon North Avenue 1, Serangoon, Southeast, 550108, Singapore",1.3694558,103.871809,0.61
SERANGOON AVE 2,SERANGOON AVE 2 Singapore,"Serangoon Avenue 2, Serangoon, Southeast, 556138, Singapore",1.3494898,103.8714286,0.51
SERANGOON AVE 4,SERANGOON AVE 4 Singapore,"Serangoon Avenue 4, Serangoon Green, Serangoon, Southeast, 551223, Singapore",1.3575382,103.8714588,0.51
SERANGOON CTRL,SERANGOON central Singapore,"Serangoon Central, Serangoon, Southeast, Singapore",1.3535142,103.8716164,0.51
TAMPINES ST 11,TAMPINES ST 11 Singapore,"Tampines Street 11, Tampines, Northeast, 529454, Singapore",1.3456887,103.9487992,0.51
TAMPINES ST 21,TAMPINES ST 21 Singapore,"Tampines Street 21, Tampines, Northeast, 520261, Singapore",1.3544777,103.9513337,0.51
TAMPINES ST 91,TAMPINES ST 91 Singapore,"Tampines Street 91, Tampines, Northeast, 529682, Singapore",1.3465957,103.9385048,0.51
TAMPINES ST 81,TAMPINES ST 81 Singapore,"Tampines Street 81, Tampines, Northeast, 520824, Singapore",1.3489498,103.9324083,0.51
TAMPINES AVE 4,TAMPINES AVE 4 Singapore,"Tampines Avenue 4, Tampines, Northeast, 520902, Singapore",1.3516792,103.9394666,0.51
TAMPINES ST 22,TAMPINES ST 22 Singapore,"Tampines Street 22, Tampines, Northeast, 522299, Singapore",1.3495407,103.9536182,0.51
TAMPINES ST 12,TAMPINES ST 12 Singapore,"Tampines Street 12, Tampines, Northeast, 521142, Singapore",1.3489353,103.9454484,0.51
TAMPINES ST 23,TAMPINES ST 23 Singapore,"Tampines Street 23, Tampines, Northeast, 520210, Singapore",1.3537911,103.9537415,0.51
TAMPINES ST 24,TAMPINES ST 24 Singapore,"Tampines Street 24, Tampines, Northeast, 526230, Singapore",1.3549719,103.9517084,0.51
TAMPINES ST 41,TAMPINES ST 41 Singapore,"Tampines Street 41, Tampines, Northeast, 520428, Singapore",1.3588512,103.9493199,0.51
TAMPINES ST 82,TAMPINES ST 82 Singapore,"Tampines Street 82, Tampines, Northeast, 520902, Singapore",1.3517466,103.9390998,0.51
TAMPINES ST 83,TAMPINES ST 83 Singapore,"Tampines Street 83, Tampines, Northeast, 522863, Singapore",1.3556342,103.9348485,0.51
TAMPINES AVE 5,TAMPINES AVE 5 Singapore,"Tampines Avenue 5, Tampines, Northeast, 521148, Singapore",1.3508671,103.9415576,0.51
LOR 2 TOA PAYOH,lorong 2 TOA PAYOH Singapore,"Lorong 2 Toa Payoh, Toa Payoh, Singapore, Central, 319640, Singapore",1.3355455,103.8465213,0.61
LOR 8 TOA PAYOH,lorong 8 TOA PAYOH Singapore,"Lorong 8 Toa Payoh, Toa Payoh, Singapore, Central, 311021, Singapore",1.3352794,103.8579927,0.61
LOR 1 TOA PAYOH,lorong 1 TOA PAYOH Singapore,"Lorong 1 Toa Payoh, Toa Payoh, Singapore, Central, 310239, Singapore",1.3404244,103.8501443,0.61
LOR 5 TOA PAYOH,lorong 5 TOA PAYOH Singapore,"Lorong 5 Toa Payoh, Toa Payoh, Singapore, Central, 319377, Singapore",1.3372441,103.8520887,0.61
LOR 3 TOA PAYOH,lorong 3 TOA PAYOH Singapore,"Lorong 3 Toa Payoh, Toa Payoh, Singapore, Central, 311099, Singapore",1.3381093,103.8475959,0.61
LOR 7 TOA PAYOH,lorong 7 TOA PAYOH Singapore,"Lorong 7 Toa Payoh, Toa Payoh, Singapore, Central, 311021, Singapore",1.3348372,103.8580836,0.61
TOA PAYOH EAST,TOA PAYOH EAST Singapore,"Toa Payoh East, Toa Payoh, Singapore, Central, 319260, Singapore",1.3341481,103.859536,0.51
LOR 4 TOA PAYOH,lorong 4 TOA PAYOH Singapore,"Lorong 4 Toa Payoh, Toa Payoh, Singapore, Central, 310093, Singapore",1.3380998,103.8500005,0.61
TOA PAYOH CTRL,TOA PAYOH central Singapore,"Toa Payoh Central, Toa Payoh, Singapore, Central, Singapore",1.3326741,103.8505222,0.61
TOA PAYOH NTH,TOA PAYOH north Singapore,"Toa Payoh North, Toa Payoh, Singapore, Central, Singapore",1.3416548,103.8464594,0.61
POTONG PASIR AVE 3,POTONG PASIR AVE 3 Singapore,"Potong Pasir Avenue 3, Potong Pasir, Southeast, 350125, Singapore",1.3358054,103.8649,0.61
POTONG PASIR AVE 1,POTONG PASIR AVE 1 Singapore,"Potong Pasir Avenue 1, Potong Pasir, Southeast, 350125, Singapore",1.3360348,103.864823,0.61
UPP ALJUNIED LANE,upper ALJUNIED LANE Singapore,"Upper Aljunied Lane, Joo Seng Green, Joo Seng, Southeast, 367870, Singapore",1.3342026,103.8795874,0.485
JOO SENG RD,JOO SENG RD Singapore,"Joo Seng Road, Joo Seng, Southeast, 368360, Singapore",1.3381197,103.8843934,0.41
MARSILING LANE,MARSILING LANE Singapore,"Marsiling Lane, Woodlands, Northwest, 739148, Singapore",1.4456736,103.772599,0.41
MARSILING DR,MARSILING DR Singapore,"Marsiling Drive, Woodlands, Northwest, 739148, Singapore",1.4457651,103.7726015,0.41
MARSILING RISE,MARSILING RISE Singapore,"Marsiling Rise, Woodlands, Northwest, 730013, Singapore",1.4400404,103.7798369,0.41
MARSILING CRES,MARSILING CRES Singapore,"Marsiling Crescent, Woodlands, Northwest, 739145, Singapore",1.4491611,103.7763517,0.41
WOODLANDS CTR RD,WOODLANDS CTR RD Singapore,"Woodlands Centre Road, Woodlands, Northwest, 739980, Singapore",1.4407212,103.7709706,0.31
WOODLANDS ST 13,WOODLANDS ST 13 Singapore,"Woodlands Street 13, Woodlands, Northwest, 730189, Singapore",1.4360845,103.772004,0.51
WOODLANDS ST 11,WOODLANDS ST 11 Singapore,"Woodlands Street 11, Woodlands, Northwest, 730166, Singapore",1.4331021,103.7756735,0.51
YISHUN RING RD,YISHUN RING RD Singapore,"Yishun Ring Road, Yishun, Central, 761813, Singapore",1.4183964,103.8332511,0.41
YISHUN AVE 5,YISHUN AVE 5 Singapore,"Yishun Avenue 5, Yishun, Northwest, 760743, Singapore",1.430515,103.8334702,0.51
YISHUN ST 72,YISHUN ST 72 Singapore,"Yishun Street 72, Yishun, Northwest, 760731, Singapore",1.4277714,103.8314891,0.51
YISHUN ST 11,YISHUN ST 11 Singapore,"Yishun Street 11, Yishun, Northwest, 768643, Singapore",1.4346856,103.8323493,0.51
YISHUN ST 21,YISHUN ST 21 Singapore,"Yishun Street 21, Yishun, Northwest, 768610, Singapore",1.4319625,103.8378821,0.51
YISHUN ST 22,YISHUN ST 22 Singapore,"Yishun Street 22, Yishun, Northwest, 760293, Singapore",1.4375315,103.8370089,0.51
YISHUN AVE 3,YISHUN AVE 3 Singapore,"Yishun Avenue 3, Yishun, Northwest, 760774, Singapore",1.4228911,103.8328184,0.51
CHAI CHEE AVE,CHAI CHEE AVE Singapore,"Chai Chee Avenue, Ansar Garden, Bedok, Southeast, 461029, Singapore",1.325289,103.9232643,0.51
ZION RD,ZION RD Singapore,"Zion Road, Bukit Merah, Singapore, Central, 169075, Singapore",1.2895084,103.8333958,0.31
LENGKOK BAHRU,LENGKOK BAHRU Singapore,"Lengkok Bahru, Bukit Merah, Singapore, Central, 150045, Singapore",1.2865943,103.8133619,0.41
SPOTTISWOODE PK RD,SPOTTISWOODE PK RD Singapore,"Spottiswoode Park Road, Bukit Merah, Singapore, Central, 088660, Singapore",1.2754717,103.8372323,0.31
NEW MKT RD,NEW MKT RD Singapore,"New Market Road, Chinatown, Outram, Singapore, Central, 059804, Singapore",1.2869758,103.844519,0.31
TG PAGAR PLAZA,tanjong PAGAR PLAZA Singapore,"UOB, 1, Tanjong Pagar Road, Outram, Singapore, Central, 82001, Singapore",1.274899,103.8425428,0.311
KELANTAN RD,KELANTAN RD Singapore,"Kelantan Road, Rochor, Singapore, Central, 208828, Singapore",1.3052129,103.8569167,0.31
PAYA LEBAR WAY,PAYA LEBAR WAY Singapore,"Paya Lebar Way, Geylang, Southeast, 370086, Singapore",1.3237374,103.8850678,0.51
UBI AVE 1,UBI AVE 1 Singapore,"Ubi Avenue 1, Geylang, Southeast, 409009, Singapore",1.3235947,103.8924193,0.51
SIMS AVE,SIMS AVE Singapore,"Sims Avenue, Kallang, Singapore, Central, 389119, Singapore",1.3104975,103.8703859,0.41
YUNG PING RD,YUNG PING RD Singapore,"Yuvabharathi International School, 3, Hu Ching Road, Jurong West, Southwest, 619651, Singapore",1.3293688,103.7238407,0.401
TAO CHING RD,TAO CHING RD Singapore,"Tao Ching Road, Jurong East, Southwest, 618724, Singapore",1.3327685,103.7249411,0.41
GLOUCESTER RD,GLOUCESTER RD Singapore,"Gloucester Road, Farrer Park Gardens, Kallang, Singapore, Central, 219458, Singapore",1.3134546,103.8515408,0.41
BOON KENG RD,BOON KENG RD Singapore,"Boon Keng Road, Kallang, Singapore, Central, 339213, Singapore",1.3140827,103.8660792,0.41
WHAMPOA STH,WHAMPOA STH Singapore,"Whampoa South, Kallang, Singapore, Central, 330049, Singapore",1.3250618,103.8663299,0.285
CAMBRIDGE RD,CAMBRIDGE RD Singapore,"Cambridge Road, Dorset View, Kallang, Singapore, Central, 210043, Singapore",1.3161434,103.8495272,0.31
TAMPINES ST 42,TAMPINES ST 42 Singapore,"Tampines Street 42, Tampines, Northeast, 520460, Singapore",1.358603,103.9548898,0.51
LOR 6 TOA PAYOH,lorong 6 TOA PAYOH Singapore,"Lorong 6 Toa Payoh, Toa Payoh, Singapore, Central, 310047, Singapore",1.3374634,103.8540483,0.61
KIM KEAT AVE,KIM KEAT AVE Singapore,"Kim Keat Avenue, Toa Payoh, Singapore, Central, 311266, Singapore",1.3324631,103.8596967,0.51
YISHUN AVE 6,YISHUN AVE 6 Singapore,"Yishun Avenue 6, Yishun, Northwest, 768959, Singapore",1.4394776,103.8398555,0.51
YISHUN AVE 9,YISHUN AVE 9 Singapore,"Yishun Avenue 9, Yishun, Northwest, 768898, Singapore",1.4315921,103.8394321,0.51
YISHUN ST 71,YISHUN ST 71 Singapore,"Yishun Street 71, Yishun, Northwest, 768516, Singapore",1.4271436,103.8295777,0.51
BT BATOK ST 32,bukit BATOK ST 32 Singapore,"Bukit Batok Street 32, Bukit Gombak, Bukit Batok, Southwest, 650342, Singapore",1.3619473,103.7484085,0.61
SILAT AVE,SILAT AVE Singapore,"Silat Avenue, Radin Mas, Bukit Merah, Singapore, Central, 160145, Singapore",1.277012,103.8304838,0.385
TIONG BAHRU RD,TIONG BAHRU RD Singapore,"Tiong Bahru Road, Bukit Merah, Singapore, Central, 158787, Singapore",1.2886336,103.8207326,0.41
SAGO LANE,SAGO LANE Singapore,"Sago Lane, Chinatown, Outram, Singapore, Central, 058840, Singapore",1.2811686,103.8444047,0.41
ST. GEORGE'S LANE,ST. GEORGE'S LANE Singapore,"Saint George's Lane, Kallang, Singapore, Central, 321026, Singapore",1.3229605,103.8621998,0.51
LIM CHU KANG RD,LIM CHU KANG RD Singapore,"Lim Chu Kang Road, Lim Chu Kang, Southwest, 709654, Singapore",1.445143,103.7075606,0.51
C'WEALTH AVE,C'WEALTH AVE Singapore,"Commonwealth Station Exit A/D, Commonwealth Avenue, Queenstown, Singapore, Central, 149735, Singapore",1.3020355,103.7983964,0.411
QUEEN'S CL,QUEEN'S CL Singapore,"Queen's Close, Queen's View, Queenstown, Singapore, Central, 142023, Singapore",1.2936516,103.800813,0.51
SERANGOON AVE 3,SERANGOON AVE 3 Singapore,"Serangoon Avenue 3, Serangoon, Southeast, 556108, Singapore",1.3491001,103.8669343,0.51
POTONG PASIR AVE 2,POTONG PASIR AVE 2 Singapore,"Potong Pasir Avenue 2, Potong Pasir, Southeast, 358361, Singapore",1.3319112,103.8669269,0.61
WOODLANDS AVE 1,WOODLANDS AVE 1 Singapore,"Woodlands Avenue 1, Woodlands, Northwest, 31, Singapore",1.4292056,103.7755184,0.51
YISHUN AVE 4,YISHUN AVE 4 Singapore,"Yishun Avenue 4, Yishun, Central, 760867, Singapore",1.4132563,103.8391476,0.51
LOWER DELTA RD,LOWER DELTA RD Singapore,"Lower Delta Road, Bukit Merah, Singapore, Central, 164019, Singapore",1.2865875,103.8254069,0.41
NILE RD,NILE RD Singapore,"Henderson Community Club, 500, Bukit Merah View, Bukit Merah, Singapore, Central, 159682, Singapore",1.28587615,103.823494,0.411
JLN MEMBINA BARAT,jalan MEMBINA BARAT Singapore,"Zhangde Primary School, 51, Jalan Membina, Bukit Merah, Singapore, Central, 169485, Singapore",1.2842497,103.8260819,0.411
JLN BERSEH,jalan BERSEH Singapore,"Jalan Berseh, Rochor, Singapore, Central, 209037, Singapore",1.3075707,103.8571123,0.41
CHANDER RD,CHANDER RD Singapore,"Chander Road, Rochor, Singapore, Central, 219541, Singapore",1.3079981,103.8512507,0.31
CASSIA CRES,CASSIA CRES Singapore,"Cassia Crescent, Geylang, Southeast, 390036, Singapore",1.3098271,103.8846065,0.41
OLD AIRPORT RD,OLD AIRPORT RD Singapore,"Old Airport Road, Geylang, Southeast, 390039, Singapore",1.3075068,103.8851071,0.41
ALJUNIED RD,ALJUNIED RD Singapore,"Aljunied Road, Geylang, Southeast, 389823, Singapore",1.3167183,103.8818909,0.31
BUANGKOK STH FARMWAY 1,BUANGKOK STH FARMWAY 1 Singapore,"Ranggung, Sengkang East Avenue, Seng Kang, Northeast, 544207, Singapore",1.3840474,103.8974006,0.404634168
BT BATOK ST 33,bukit BATOK ST 33 Singapore,"Bukit Batok Street 33, Bukit Gombak, Bukit Batok, Southwest, 650322, Singapore",1.3619204,103.7469144,0.61
ALEXANDRA RD,ALEXANDRA RD Singapore,"Alexandra Road, Queenstown, Singapore, Central, 149053, Singapore",1.287142,103.8036249,0.31
CHIN SWEE RD,CHIN SWEE RD Singapore,"Chin Swee Road, Chinatown, Outram, Singapore, Central, 169879, Singapore",1.2862407,103.8384184,0.41
SIMS PL,SIMS PL Singapore,"Sims Place, Geylang, Southeast, 380051, Singapore",1.315997,103.8792924,0.41
HOUGANG AVE 2,HOUGANG AVE 2 Singapore,"Hougang Avenue 2, Hougang, Northeast, 530631, Singapore",1.3693004,103.8802579,0.51
HOUGANG AVE 8,HOUGANG AVE 8 Singapore,"Hougang Avenue 8, Hougang, Northeast, 538787, Singapore",1.3767594,103.8929127,0.51
SEMBAWANG RD,SEMBAWANG RD Singapore,"Sembawang Road, Sembawang, Northwest, 759660, Singapore",1.4570743,103.8356832,0.31
SIMEI ST 1,SIMEI ST 1 Singapore,"Simei Street 1, Simei, Southeast, 520163, Singapore",1.3462396,103.9589626,0.51
BT BATOK ST 34,bukit BATOK ST 34 Singapore,"Bukit Batok Street 34, Bukit Gombak, Bukit Batok, Southwest, 650339, Singapore",1.3637798,103.751357,0.61
BT MERAH CTRL,bukit MERAH central Singapore,"Bukit Merah Central, Bukit Merah, Singapore, Central, Singapore",1.28281325,103.816743,0.61
LIM LIAK ST,LIM LIAK ST Singapore,"Lim Liak Street, Tiong Bahru Estate, Bukit Merah, Singapore, Central, 160057, Singapore",1.2851763,103.8329378,0.51
JLN TENTERAM,jalan TENTERAM Singapore,"Jalan Tenteram, Novena, Singapore, Central, 321016, Singapore",1.3285036,103.8595475,0.41
WOODLANDS ST 32,WOODLANDS ST 32 Singapore,"Woodlands Street 32, Woodlands, Northwest, 738623, Singapore",1.4323705,103.779471,0.51
SIN MING AVE,SIN MING AVE Singapore,"Sin Ming Avenue, Bishan, Singapore, Central, 576442, Singapore",1.3619154,103.8321874,0.51
BT BATOK ST 52,bukit BATOK ST 52 Singapore,"Bukit Batok Street 52, Bukit Batok, Southwest, 650511, Singapore",1.3530839,103.7538503,0.61
DELTA AVE,DELTA AVE Singapore,"Delta Avenue, Indus Garden, Tanglin, Singapore, Central, 160005, Singapore",1.2920076,103.8281489,0.385
PIPIT RD,PIPIT RD Singapore,"Pipit Road, Geylang, Southeast, 370052, Singapore",1.3238978,103.8855356,0.31
HOUGANG AVE 4,HOUGANG AVE 4 Singapore,"Hougang Avenue 4, Hougang, Northeast, 530912, Singapore",1.3789614,103.8844884,0.51
QUEENSWAY,QUEENSWAY Singapore,"Queensway, Queenstown, Singapore, Central, 140019, Singapore",1.2912171,103.8007608,0.31
YISHUN ST 61,YISHUN ST 61 Singapore,"Yishun Street 61, Nee Soon Central Meadows, Yishun, Northwest, 768548, Singapore",1.4206772,103.8369542,0.51
BISHAN ST 12,BISHAN ST 12 Singapore,"Bishan Street 12, Bishan, Singapore, Central, 570129, Singapore",1.3457256,103.8501597,0.51
JLN MA'MOR,jalan MA'MOR Singapore,"Jalan Ma'mor, Novena, Singapore, Central, 328958, Singapore",1.3284611,103.8576752,0.51
TAMPINES ST 44,TAMPINES ST 44 Singapore,"Tampines Street 44, Tampines, Northeast, 520471, Singapore",1.3609365,103.9542202,0.51
TAMPINES ST 43,TAMPINES ST 43 Singapore,"Tampines Street 43, Tampines, Northeast, 520442, Singapore",1.3591114,103.9523946,0.51
BISHAN ST 13,BISHAN ST 13 Singapore,"Bishan Street 13, Bishan, Singapore, Central, 579799, Singapore",1.3500072,103.8503875,0.51
JLN DUSUN,jalan DUSUN Singapore,"Jalan Dusun, Novena, Singapore, Central, 329885, Singapore",1.3265324,103.843976,0.41
YISHUN AVE 2,YISHUN AVE 2 Singapore,"Yishun Avenue 2, Yishun, Central, 769092, Singapore",1.4167642,103.832989,0.51
JOO CHIAT RD,JOO CHIAT RD Singapore,"Joo Chiat Road, Marine Parade, Southeast, 449274, Singapore",1.3044694,103.9060707,0.41
EAST COAST RD,EAST COAST RD Singapore,"East Coast Road, Bedok, Southeast, 428981, Singapore",1.3087579,103.9110966,0.41
REDHILL RD,REDHILL RD Singapore,"Redhill Road, Bukit Merah, Singapore, Central, 150072, Singapore",1.2875474,103.8165884,0.31
KIM PONG RD,KIM PONG RD Singapore,"Kim Pong Road, Tiong Bahru Estate, Bukit Merah, Singapore, Central, 160078, Singapore",1.2838445,103.8301623,0.41
RACE COURSE RD,RACE COURSE RD Singapore,"Race Course Road, Rochor, Singapore, Central, 211014, Singapore",1.3120649,103.8530878,0.41
KRETA AYER RD,KRETA AYER RD Singapore,"Kreta Ayer Road, Kreta Ayer Heights, Outram, Singapore, Central, 080333, Singapore",1.280851,103.8425971,0.41
HOUGANG ST 61,HOUGANG ST 61 Singapore,"Hougang Street 61, Hougang, Northeast, 530684, Singapore",1.374753,103.8864304,0.51
TESSENSOHN RD,TESSENSOHN RD Singapore,"Tessensohn Road, Kallang, Singapore, Central, 217664, Singapore",1.3155566,103.8565005,0.31
MARSILING RD,MARSILING RD Singapore,"Marsiling Road, Woodlands, Northwest, 730013, Singapore",1.4415151,103.7799574,0.31
YISHUN ST 81,YISHUN ST 81 Singapore,"Yishun Street 81, Springleaf, Central, 760845, Singapore",1.4138749,103.8348492,0.51
BT BATOK ST 51,bukit BATOK ST 51 Singapore,"Bukit Batok Street 51, Bukit Gombak, Bukit Batok, Southwest, 659445, Singapore",1.356465,103.7491442,0.61
BT BATOK WEST AVE 4,bukit BATOK WEST AVE 4 Singapore,"Bukit Batok West Avenue 4, Bukit Gombak, Bukit Batok, Southwest, 650319, Singapore",1.3607914,103.7455414,0.71
BT BATOK WEST AVE 2,bukit BATOK WEST AVE 2 Singapore,"Bukit Batok West Avenue 2, Bukit Gombak, Bukit Batok, Southwest, 650306, Singapore",1.35885,103.7472157,0.71
JURONG WEST ST 91,JURONG WEST ST 91 Singapore,"Jurong West Street 91, Jurong West, Southwest, 649041, Singapore",1.3425992,103.6919151,0.61
JURONG WEST ST 81,JURONG WEST ST 81 Singapore,"Jurong West Street 81, Jurong West, Southwest, 640859, Singapore",1.3486993,103.6957522,0.61
GANGSA RD,GANGSA RD Singapore,"Gangsa Road, Bukit Panjang, Northwest, 670143, Singapore",1.378104,103.7664619,0.31
MCNAIR RD,MCNAIR RD Singapore,"McNair Road, Kallang, Singapore, Central, 323108, Singapore",1.3203269,103.858769,0.31
SIMEI ST 4,SIMEI ST 4 Singapore,"Simei Street 4, Simei, Southeast, 520225, Singapore",1.342092,103.9580175,0.51
YISHUN AVE 7,YISHUN AVE 7 Singapore,"Yishun Avenue 7, Yishun, Northwest, 760175, Singapore",1.4385026,103.8335882,0.51
SERANGOON NTH AVE 2,SERANGOON north AVE 2 Singapore,"Serangoon North Avenue 2, Serangoon, Southeast, 555876, Singapore",1.3688726,103.8749123,0.61
YISHUN AVE 11,YISHUN AVE 11 Singapore,"Yishun Avenue 11, Yishun, Northwest, 768961, Singapore",1.4236023,103.8495581,0.51
BANGKIT RD,BANGKIT RD Singapore,"Bangkit Road, Bukit Panjang, Northwest, 670256, Singapore",1.3793606,103.7733911,0.31
JURONG WEST ST 73,JURONG WEST ST 73 Singapore,"Jurong West Street 73, Jurong West, Southwest, 640753, Singapore",1.3480442,103.6999277,0.61
OUTRAM HILL,OUTRAM HILL Singapore,"Outram Hill, Outram, Singapore, Central, 169056, Singapore",1.2851837,103.8359064,0.41
HOUGANG AVE 6,HOUGANG AVE 6 Singapore,"Hougang Avenue 6, Hougang, Northeast, 538808, Singapore",1.375725,103.8928483,0.51
PASIR RIS ST 12,PASIR RIS ST 12 Singapore,"Pasir Ris Street 12, Pasir Ris, Northeast, 510199, Singapore",1.3670096,103.9590175,0.61
PENDING RD,PENDING RD Singapore,"Pending Road, Bukit Panjang, Northwest, 678296, Singapore",1.3764485,103.7713455,0.31
PETIR RD,PETIR RD Singapore,"Petir Road, Bukit Panjang, Northwest, 677743, Singapore",1.3779574,103.7638361,0.31
LOR 3 GEYLANG,lorong 3 GEYLANG Singapore,"Lorong 3 Geylang, Kallang Way, Southeast, 388869, Singapore",1.3140313,103.8735834,0.51
BISHAN ST 11,BISHAN ST 11 Singapore,"Bishan Street 11, Bishan, Singapore, Central, 570125, Singapore",1.347365,103.8516733,0.51
PASIR RIS DR 6,PASIR RIS DR 6 Singapore,"Pasir Ris Drive 6, Pasir Ris, Northeast, 510405, Singapore",1.3733631,103.9562164,0.61
BISHAN ST 23,BISHAN ST 23 Singapore,"Bishan Street 23, Bishan, Singapore, Central, 570293, Singapore",1.3567233,103.8462278,0.51
JURONG WEST ST 92,JURONG WEST ST 92 Singapore,"Jurong West Street 92, Jurong West, Southwest, 649000, Singapore",1.3416465,103.690254,0.61
PASIR RIS ST 11,PASIR RIS ST 11 Singapore,"Pasir Ris Street 11, Pasir Ris, Northeast, 510137, Singapore",1.3655136,103.9577796,0.61
YISHUN CTRL,YISHUN central Singapore,"Yishun Central, Yishun, Northwest, Singapore",1.42645065,103.8372038,0.51
BISHAN ST 22,BISHAN ST 22 Singapore,"Bishan Street 22, Bishan, Singapore, Central, 570233, Singapore",1.3597108,103.8441803,0.51
SIMEI RD,SIMEI RD Singapore,"Simei Road, Simei, Southeast, 520224, Singapore",1.3430876,103.957814,0.31
TAMPINES ST 84,TAMPINES ST 84 Singapore,"Tampines Street 84, Tampines, Northeast, 520876, Singapore",1.353151,103.9316139,0.51
BT PANJANG RING RD,bukit PANJANG RING RD Singapore,"Bukit Panjang Ring Road, Bukit Panjang, Northwest, 679944, Singapore",1.3835773,103.7731585,0.51
JURONG WEST ST 93,JURONG WEST ST 93 Singapore,"Jurong West Street 93, Jurong West, Southwest, 640986, Singapore",1.3371881,103.6937693,0.61
FAJAR RD,FAJAR RD Singapore,"Fajar Road, Bukit Panjang, Northwest, 670443, Singapore",1.3808488,103.7711643,0.31
WOODLANDS ST 81,WOODLANDS ST 81 Singapore,"Woodlands St 81, Woodlands, Northwest, 738524, Singapore",1.4410395,103.789226,0.51
CHOA CHU KANG CTRL,CHOA CHU KANG central Singapore,"Choa Chu Kang Central, Choa Chu Kang, Southwest, 680220, Singapore",1.3816235,103.7455789,0.61
PASIR RIS ST 51,PASIR RIS ST 51 Singapore,"Pasir Ris Street 51, Pasir Ris, Northeast, 510528, Singapore",1.37103,103.948889,0.61
HOUGANG ST 52,HOUGANG ST 52 Singapore,"Hougang Street 52, Hougang, Northeast, 531699, Singapore",1.3774917,103.8890777,0.51
CASHEW RD,CASHEW RD Singapore,"Cashew Road, Bukit Panjang, Northwest, 679697, Singapore",1.3707079,103.7660976,0.31
TOH YI DR,TOH YI DR Singapore,"Toh Yi Drive, Southwest, 590013, Singapore",1.338402,103.7716951,0.51
HOUGANG CTRL,HOUGANG central Singapore,"Hougang Central, Hougang, Northeast, Singapore",1.3710492,103.8943576,0.51
KG KAYU RD,kampong KAYU RD Singapore,"Kampong Kayu Road, Kallang, Southeast, 431001, Singapore",1.3032065,103.8831258,0.41
TAMPINES AVE 8,TAMPINES AVE 8 Singapore,"Tampines Avenue 8, Tampines, Northeast, 524872, Singapore",1.3543776,103.9314351,0.51
TAMPINES ST 45,TAMPINES ST 45 Singapore,"Tampines Street 45, Tampines, Northeast, 421489, Singapore",1.361485,103.9576999,0.51
SIMEI ST 2,SIMEI ST 2 Singapore,"Simei Street 2, Simei, Southeast, 520131, Singapore",1.3454985,103.9544007,0.485
WOODLANDS AVE 3,WOODLANDS AVE 3 Singapore,"Woodlands Avenue 3, Woodlands, Northwest, 738623, Singapore",1.4323437,103.7793901,0.51
LENGKONG TIGA,LENGKONG TIGA Singapore,"Lengkong Tiga, Bedok, Southeast, 417408, Singapore",1.3234438,103.9129716,0.41
WOODLANDS ST 82,WOODLANDS ST 82 Singapore,"Woodlands Street 82, Woodlands, Northwest, 738908, Singapore",1.444474,103.7933728,0.51
SERANGOON NTH AVE 4,SERANGOON north AVE 4 Singapore,"Serangoon North Avenue 4, Serangoon North, Singapore, Central, 550530, Singapore",1.3736228,103.8727579,0.61
SERANGOON CTRL DR,SERANGOON central DR Singapore,"Serangoon Central Drive, Serangoon, Southeast, 550261, Singapore",1.3546819,103.8724793,0.51
BRIGHT HILL DR,BRIGHT HILL DR Singapore,"Bright Hill Drive, Bishan, Singapore, Central, 573957, Singapore",1.3595132,103.8333336,0.51
SAUJANA RD,SAUJANA RD Singapore,"Saujana Road, Bukit Panjang, Northwest, 670414, Singapore",1.3820712,103.7682885,0.31
CHOA CHU KANG AVE 3,CHOA CHU KANG AVE 3 Singapore,"Choa Chu Kang Avenue 3, Choa Chu Kang, Southwest, 683476, Singapore",1.3780143,103.7383068,0.71
TAMPINES AVE 9,TAMPINES AVE 9 Singapore,"Tampines Avenue 9, Tampines, Northeast, 528594, Singapore",1.3603155,103.94251,0.51
JURONG WEST ST 51,JURONG WEST ST 51 Singapore,"Jurong West Street 51, Jurong West, Southwest, 649332, Singapore",1.3463505,103.7214376,0.61
YUNG HO RD,YUNG HO RD Singapore,"Yung Ho Road, Jurong West, Southwest, 611150, Singapore",1.3265168,103.7219332,0.41
SERANGOON AVE 1,SERANGOON AVE 1 Singapore,"Serangoon Avenue 1, Serangoon, Southeast, 550426, Singapore",1.3475765,103.875593,0.51
PASIR RIS ST 41,PASIR RIS ST 41 Singapore,"Pasir Ris Street 41, Pasir Ris, Northeast, 510484, Singapore",1.3733109,103.9607583,0.61
GEYLANG EAST AVE 2,GEYLANG EAST AVE 2 Singapore,"Geylang East Avenue 2, Geylang, Southeast, 380129, Singapore",1.3169779,103.8884919,0.61
CHOA CHU KANG AVE 2,CHOA CHU KANG AVE 2 Singapore,"Choa Chu Kang Avenue 2, Choa Chu Kang, Southwest, 680251, Singapore",1.3787569,103.7445411,0.71
KIM KEAT LINK,KIM KEAT LINK Singapore,"Kim Keat Link, Toa Payoh, Singapore, Central, 310264, Singapore",1.3318864,103.8549544,0.51
PASIR RIS DR 4,PASIR RIS DR 4 Singapore,"Pasir Ris Drive 4, Pasir Ris, Northeast, 510485, Singapore",1.374348,103.9611837,0.61
PASIR RIS ST 21,PASIR RIS ST 21 Singapore,"Pasir Ris Street 21, Pasir Ris, Northeast, 510222, Singapore",1.3707764,103.9621378,0.61
SENG POH RD,SENG POH RD Singapore,"Seng Poh Road, Bukit Merah, Singapore, Central, 168895, Singapore",1.2858869,103.8342445,0.41
HOUGANG ST 51,HOUGANG ST 51 Singapore,"Hougang Street 51, Hougang, Northeast, 538719, Singapore",1.3788784,103.8894043,0.51
JURONG WEST ST 72,JURONG WEST ST 72 Singapore,"Jurong West Street 72, Jurong West, Southwest, 640730, Singapore",1.3465241,103.6986732,0.61
JURONG WEST ST 71,JURONG WEST ST 71 Singapore,"Jurong West Street 71, Jurong West, Southwest, 640711, Singapore",1.3432751,103.6951495,0.61
PASIR RIS ST 52,PASIR RIS ST 52 Singapore,"Pasir Ris Street 52, Pasir Ris, Northeast, 510572, Singapore",1.3734067,103.9452475,0.61
TAMPINES ST 32,TAMPINES ST 32 Singapore,"Tampines Street 32, Tampines, Northeast, 520332, Singapore",1.3537896,103.9606773,0.51
CHOA CHU KANG AVE 4,CHOA CHU KANG AVE 4 Singapore,"Choa Chu Kang Avenue 4, Choa Chu Kang, Southwest, 680350, Singapore",1.3839732,103.7433587,0.71
CHOA CHU KANG LOOP,CHOA CHU KANG LOOP Singapore,"Choa Chu Kang Loop, Choa Chu Kang, Southwest, 689717, Singapore",1.3863917,103.7458846,0.61
JLN TENAGA,jalan TENAGA Singapore,"Jalan Tenaga, Kaki Bukit, Northeast, 410658, Singapore",1.3337449,103.9059737,0.41
TAMPINES CTRL 1,TAMPINES central 1 Singapore,"Tampines Central 1, Tampines, Northeast, 529542, Singapore",1.355241,103.9428309,0.51
TAMPINES ST 33,TAMPINES ST 33 Singapore,"Tampines Street 33, Tampines, Northeast, 520338, Singapore",1.3521561,103.9592881,0.51
BT BATOK WEST AVE 7,bukit BATOK WEST AVE 7 Singapore,"Bukit Batok West Avenue 7, Bukit Gombak, Bukit Batok, Southwest, 650336, Singapore",1.3652216,103.7491799,0.71
JURONG WEST AVE 5,JURONG WEST AVE 5 Singapore,"Jurong West Avenue 5, Jurong West, Southwest, 640857, Singapore",1.3484873,103.6970425,0.61
TAMPINES AVE 7,TAMPINES AVE 7 Singapore,"Tampines Avenue 7, Tampines, Northeast, 523497, Singapore",1.3586761,103.9595549,0.51
WOODLANDS ST 83,WOODLANDS ST 83 Singapore,"Woodlands Street 83, Woodlands, Northwest, 738489, Singapore",1.4415868,103.7953321,0.51
CHOA CHU KANG ST 51,CHOA CHU KANG ST 51 Singapore,"Choa Chu Kang Street 51, Choa Chu Kang, Northwest, 689333, Singapore",1.3897733,103.7431311,0.71
PASIR RIS DR 3,PASIR RIS DR 3 Singapore,"Pasir Ris Drive 3, Pasir Ris, Northeast, 510587, Singapore",1.3770189,103.9455651,0.61
YISHUN CTRL 1,YISHUN central 1 Singapore,"Yishun Central, Yishun, Northwest, 761348, Singapore",1.4260129,103.8405884,0.51
CHOA CHU KANG AVE 1,CHOA CHU KANG AVE 1 Singapore,"Choa Chu Kang Avenue 1, Choa Chu Kang, Southwest, 689471, Singapore",1.3763012,103.7438608,0.71
WOODLANDS ST 31,WOODLANDS ST 31 Singapore,"Woodlands Street 31, Woodlands, Northwest, 31, Singapore",1.4299577,103.7753902,0.52
BT MERAH LANE 1,bukit MERAH LANE 1 Singapore,"Bukit Merah Lane 1, Alexandra Village Industrial Estate, Bukit Merah, Singapore, Central, 159971, Singapore",1.2865754,103.8053513,0.61
PASIR RIS ST 13,PASIR RIS ST 13 Singapore,"Pasir Ris Street 13, Pasir Ris, Northeast, 510161, Singapore",1.3634306,103.9617562,0.585
ELIAS RD,ELIAS RD Singapore,"Elias Road, Pasir Ris, Northeast, 519937, Singapore",1.3733385,103.9403331,0.31
BISHAN ST 24,BISHAN ST 24 Singapore,"Bishan Street 24, Bishan, Singapore, Central, 570289, Singapore",1.3569378,103.844615,0.51
WHAMPOA RD,WHAMPOA RD Singapore,"Whampoa Road, Novena, Singapore, Central, 327691, Singapore",1.3265917,103.8555845,0.31
WOODLANDS ST 41,WOODLANDS ST 41 Singapore,"Woodlands Street 41, Woodlands, Northwest, 739068, Singapore",1.4296709,103.7734429,0.51
PASIR RIS ST 71,PASIR RIS ST 71 Singapore,"Pasir Ris Street 71, Pasir Ris, Northeast, 510771, Singapore",1.3760901,103.936605,0.61
JURONG WEST ST 74,JURONG WEST ST 74 Singapore,"Jurong West Street 74, Jurong West, Southwest, 649149, Singapore",1.348515,103.6991476,0.61
PASIR RIS DR 1,PASIR RIS DR 1 Singapore,"Pasir Ris Drive 1, Pasir Ris, Northeast, 510199, Singapore",1.367705,103.9596761,0.61
PASIR RIS ST 72,PASIR RIS ST 72 Singapore,"Pasir Ris Street 72, Pasir Ris, Northeast, 510701, Singapore",1.3798677,103.937559,0.61
PASIR RIS DR 10,PASIR RIS DR 10 Singapore,"Pasir Ris Drive 10, Pasir Ris, Northeast, 510708, Singapore",1.3808296,103.9391633,0.61
CHOA CHU KANG ST 52,CHOA CHU KANG ST 52 Singapore,"Choa Chu Kang Street 52, Choa Chu Kang, Northwest, 680533, Singapore",1.3932339,103.742965,0.71
CLARENCE LANE,CLARENCE LANE Singapore,"Clarence Lane, Queenstown, Singapore, Central, 141129, Singapore",1.2928129,103.8141556,0.41
CHOA CHU KANG NTH 6,CHOA CHU KANG north 6 Singapore,"Choa Chu Kang North 6, Choa Chu Kang, Northwest, 689580, Singapore",1.3964497,103.7470702,0.71
PASIR RIS ST 53,PASIR RIS ST 53 Singapore,"Pasir Ris Street 53, Pasir Ris, Northeast, 510581, Singapore",1.3746858,103.9461459,0.61
CHOA CHU KANG NTH 5,CHOA CHU KANG north 5 Singapore,"Choa Chu Kang North 5, Choa Chu Kang, Northwest, 680766, Singapore",1.3922465,103.749348,0.71
ANG MO KIO ST 21,ANG MO KIO ST 21 Singapore,"Ang Mo Kio Street 21, Ang Mo Kio, Singapore, Central, 560245, Singapore",1.3678307,103.8350873,0.71
JLN DAMAI,jalan DAMAI Singapore,"Jalan Damai, Kaki Bukit, Northeast, 410664, Singapore",1.3342924,103.9092955,0.41
CHOA CHU KANG ST 62,CHOA CHU KANG ST 62 Singapore,"Choa Chu Kang Street 62, Choa Chu Kang, Northwest, 680627, Singapore",1.3976624,103.7454763,0.71
WOODLANDS AVE 5,WOODLANDS AVE 5 Singapore,"Woodlands Avenue 5, Woodlands, Northwest, 738240, Singapore",1.4330571,103.7977402,0.51
WOODLANDS DR 50,WOODLANDS DR 50 Singapore,"Woodlands Drive 50, Woodlands, Northwest, 738853, Singapore",1.4362422,103.7909582,0.51
CHOA CHU KANG ST 53,CHOA CHU KANG ST 53 Singapore,"Choa Chu Kang Street 53, Choa Chu Kang, Northwest, 689189, Singapore",1.3911825,103.7472907,0.71
TAMPINES ST 72,TAMPINES ST 72 Singapore,"Tampines Street 72, Tampines, Northeast, 520723, Singapore",1.3601615,103.9346939,0.51
UPP SERANGOON RD,upper SERANGOON RD Singapore,"Upper Serangoon Road, Kallang, Singapore, Central, 347919, Singapore",1.3281441,103.8684511,0.41
JURONG WEST ST 75,JURONG WEST ST 75 Singapore,"Jurong West Street 75, Jurong West, Southwest, 640749, Singapore",1.3483989,103.6978283,0.61
STRATHMORE AVE,STRATHMORE AVE Singapore,"Strathmore Avenue, Queenstown, Singapore, Central, 142058, Singapore",1.2935048,103.8110261,0.41
ANG MO KIO ST 31,ANG MO KIO ST 31 Singapore,"Ang Mo Kio Street 31, Ang Mo Kio, Singapore, Central, 560339, Singapore",1.36596,103.8492395,0.71
TAMPINES ST 34,TAMPINES ST 34 Singapore,"Tampines Street 34, Tampines, Northeast, 520371, Singapore",1.3564856,103.9595788,0.51
YUNG AN RD,YUNG AN RD Singapore,"Yung An Road, Jurong West, Southwest, 618495, Singapore",1.3356506,103.7220153,0.41
WOODLANDS AVE 4,WOODLANDS AVE 4 Singapore,"Woodlands Avenue 4, Woodlands, Northwest, 738954, Singapore",1.4475715,103.7919715,0.51
CHOA CHU KANG NTH 7,CHOA CHU KANG north 7 Singapore,"Choa Chu Kang North 7, Choa Chu Kang, Northwest, 689097, Singapore",1.4001539,103.749395,0.71
ANG MO KIO ST 11,ANG MO KIO ST 11 Singapore,"Ang Mo Kio Street 11, Ang Mo Kio, Singapore, Central, 568912, Singapore",1.3716034,103.8330131,0.71
WOODLANDS AVE 9,WOODLANDS AVE 9 Singapore,"Woodlands Avenue 9, Woodlands, Northwest, 757881, Singapore",1.4475311,103.7971253,0.51
YUNG LOH RD,YUNG LOH RD Singapore,"Yung Loh Road, Jurong West, Southwest, 610155, Singapore",1.3275606,103.7223301,0.385
CHOA CHU KANG DR,CHOA CHU KANG DR Singapore,"Choa Chu Kang Drive, Choa Chu Kang, Southwest, 680216, Singapore",1.3839373,103.7470997,0.61
CHOA CHU KANG ST 54,CHOA CHU KANG ST 54 Singapore,"Choa Chu Kang Street 54, Choa Chu Kang, Northwest, 689577, Singapore",1.3962474,103.7502122,0.71
REDHILL LANE,REDHILL LANE Singapore,"Redhill Lane, Bukit Merah, Singapore, Central, 151088, Singapore",1.2866736,103.8187637,0.385
KANG CHING RD,KANG CHING RD Singapore,"Kang Ching Road, Jurong West, Southwest, 610334, Singapore",1.3399609,103.7232968,0.41
TAH CHING RD,TAH CHING RD Singapore,"Tah Ching Road, Jurong West, Southwest, 610330, Singapore",1.3382207,103.7242616,0.41
SIMEI ST 5,SIMEI ST 5 Singapore,"Simei Street 5, Simei, Southeast, 520247, Singapore",1.3446617,103.9534754,0.485
WOODLANDS DR 40,WOODLANDS DR 40 Singapore,"Woodlands Drive 40, Woodlands, Northwest, 738489, Singapore",1.4417414,103.7954226,0.51
WOODLANDS DR 70,WOODLANDS DR 70 Singapore,"Woodlands Drive 70, Woodlands, Northwest, 738907, Singapore",1.4421826,103.7982289,0.51
TAMPINES ST 71,TAMPINES ST 71 Singapore,"Tampines Street 71, Tampines, Northeast, 521730, Singapore",1.3570373,103.9328896,0.51
WOODLANDS DR 42,WOODLANDS DR 42 Singapore,"Woodlands Drive 42, Woodlands, Northwest, 730888, Singapore",1.4368958,103.7960118,0.51
SERANGOON NTH AVE 3,SERANGOON north AVE 3 Singapore,"Serangoon North Avenue 3, Serangoon North, Singapore, Central, 550530, Singapore",1.3735229,103.870825,0.61
JELAPANG RD,JELAPANG RD Singapore,"Jelapang Road, Bukit Panjang, Northwest, 677744, Singapore",1.3859002,103.767265,0.31
BT BATOK ST 22,bukit BATOK ST 22 Singapore,"Bukit Batok Street 22, Bukit Batok, Southwest, 653296, Singapore",1.344382,103.7491765,0.61
HOUGANG ST 91,HOUGANG ST 91 Singapore,"Hougang Street 91, Hougang, Northeast, 538692, Singapore",1.3756631,103.8800927,0.51
WOODLANDS AVE 6,WOODLANDS AVE 6 Singapore,"Woodlands Avenue 6, Woodlands, Northwest, 730678, Singapore",1.4416029,103.8018605,0.51
WOODLANDS CIRCLE,WOODLANDS CIRCLE Singapore,"Woodlands Circle, Woodlands, Northwest, 730768, Singapore",1.4448172,103.7971316,0.41
CORPORATION DR,CORPORATION DR Singapore,"Corporation Drive, Jurong West, Southwest, 611150, Singapore",1.3265298,103.7226986,0.41
LOMPANG RD,LOMPANG RD Singapore,"Lompang Road, Bukit Panjang, Northwest, 677743, Singapore",1.3790906,103.7644306,0.31
WOODLANDS DR 72,WOODLANDS DR 72 Singapore,"Woodlands Drive 72, Woodlands, Northwest, 730789, Singapore",1.4435007,103.8043718,0.51
CHOA CHU KANG ST 64,CHOA CHU KANG ST 64 Singapore,"Choa Chu Kang Street 64, Choa Chu Kang, Northwest, 689097, Singapore",1.3982697,103.7503095,0.71
BT BATOK ST 24,bukit BATOK ST 24 Singapore,"Bukit Batok Street 24, Bukit Batok, Southwest, 654291, Singapore",1.3428171,103.7544224,0.61
JLN TECK WHYE,jalan TECK WHYE Singapore,"Jalan Teck Whye, Choa Chu Kang, Southwest, 680160, Singapore",1.3806642,103.756014,0.51
WOODLANDS CRES,WOODLANDS CRES Singapore,"Woodlands Crescent, Woodlands, Northwest, 730784, Singapore",1.4453919,103.8045751,0.41
WOODLANDS DR 60,WOODLANDS DR 60 Singapore,"Woodlands Drive 60, Woodlands, Northwest, 731799, Singapore",1.4467759,103.7993626,0.51
CHANGI VILLAGE RD,CHANGI VILLAGE RD Singapore,"Changi Village Road, Changi Village, Changi, Southeast, 500004, Singapore",1.3886689,103.9872104,0.41
BT BATOK ST 25,bukit BATOK ST 25 Singapore,"Bukit Batok Street 25, Bukit Batok, Southwest, 658064, Singapore",1.3404847,103.7603789,0.61
HOUGANG AVE 9,HOUGANG AVE 9 Singapore,"Hougang Avenue 9, Hougang, Northeast, 530682, Singapore",1.374539,103.8846956,0.51
JURONG WEST CTRL 1,JURONG WEST central 1 Singapore,"Jurong West Central 1, Jurong West, Southwest, 640686, Singapore",1.3411397,103.7045671,0.61
WOODLANDS RING RD,WOODLANDS RING RD Singapore,"Woodlands Ring Road, Woodlands, Northwest, 730676, Singapore",1.438622,103.7998474,0.41
CHOA CHU KANG AVE 5,CHOA CHU KANG AVE 5 Singapore,"Choa Chu Kang Avenue 5, Choa Chu Kang, Southwest, 682489, Singapore",1.3755946,103.7393054,0.71
TOH GUAN RD,TOH GUAN RD Singapore,"Toh Guan Road, Jurong East, Southwest, 600282, Singapore",1.3391915,103.7476045,0.41
JURONG WEST ST 61,JURONG WEST ST 61 Singapore,"Jurong West Street 61, Jurong West, Southwest, 642656, Singapore",1.3363793,103.6989461,0.61
WOODLANDS DR 14,WOODLANDS DR 14 Singapore,"Woodlands Drive 14, Fragant Woods, Woodlands, Northwest, 738079, Singapore",1.4339051,103.7906996,0.51
HOUGANG ST 92,HOUGANG ST 92 Singapore,"Hougang Street 92, Hougang, Northeast, 547532, Singapore",1.3740927,103.8787533,0.51
CHOA CHU KANG CRES,CHOA CHU KANG CRES Singapore,"Choa Chu Kang Crescent, Choa Chu Kang, Northwest, 681672, Singapore",1.4029654,103.7493401,0.61
SEMBAWANG CL,SEMBAWANG CL Singapore,"Sembawang Close, Sun Trellis, Sembawang, Northwest, 750333, Singapore",1.4483957,103.8165256,0.385
CANBERRA RD,CANBERRA RD Singapore,"Canberra Road, Sembawang, Northwest, 757443, Singapore",1.4574235,103.8217828,0.31
SEMBAWANG CRES,SEMBAWANG CRES Singapore,"Sembawang Crescent, Sembawang, Northwest, 757704, Singapore",1.4447878,103.8165634,0.41
SEMBAWANG VISTA,SEMBAWANG VISTA Singapore,"Sembawang Vista, Sembawang, Northwest, 757713, Singapore",1.447114,103.8193689,0.41
COMPASSVALE WALK,COMPASSVALE WALK Singapore,"Compassvale Walk, Seng Kang, Northeast, 544644, Singapore",1.3896738,103.9005767,0.41
RIVERVALE ST,RIVERVALE ST Singapore,"Rivervale Street, Seng Kang, Northeast, 541124, Singapore",1.3887717,103.9021775,0.41
WOODLANDS DR 62,WOODLANDS DR 62 Singapore,"Woodlands Drive 62, Woodlands, Northwest, 737942, Singapore",1.4393493,103.8043374,0.51
SEMBAWANG DR,SEMBAWANG DR Singapore,"Sembawang Drive, Sembawang, Northwest, 757444, Singapore",1.4626967,103.8166471,0.41
WOODLANDS DR 53,WOODLANDS DR 53 Singapore,"Woodlands Drive 53, Woodlands, Northwest, 738240, Singapore",1.4330392,103.7972655,0.51
WOODLANDS DR 52,WOODLANDS DR 52 Singapore,"Woodlands Drive 52, Woodlands, Northwest, 739012, Singapore",1.4344026,103.7994245,0.51
RIVERVALE WALK,RIVERVALE WALK Singapore,"Rivervale Walk, Seng Kang, Northeast, 540110, Singapore",1.3841615,103.9001564,0.41
COMPASSVALE LANE,COMPASSVALE LANE Singapore,"Compassvale Lane, Seng Kang, Northeast, 543211, Singapore",1.3856566,103.8993344,0.41
RIVERVALE DR,RIVERVALE DR Singapore,"Rivervale Drive, Seng Kang, Northeast, 544740, Singapore",1.3816153,103.9017745,0.41
SENJA RD,SENJA RD Singapore,"Senja Road, Bukit Panjang, Northwest, 670628, Singapore",1.3846322,103.7601756,0.31
JURONG WEST ST 65,JURONG WEST ST 65 Singapore,"Jurong West Street 65, Jurong West, Southwest, 640657, Singapore",1.336143,103.7014627,0.61
RIVERVALE CRES,RIVERVALE CRES Singapore,"Rivervale Crescent, Seng Kang, Northeast, 542162, Singapore",1.3908237,103.9082143,0.41
WOODLANDS DR 44,WOODLANDS DR 44 Singapore,"Woodlands Drive 44, Vista Point, Woodlands, Northwest, 730548, Singapore",1.431327,103.7946744,0.51
COMPASSVALE DR,COMPASSVALE DR Singapore,"Compassvale Drive, Seng Kang, Northeast, 544700, Singapore",1.3886788,103.8945541,0.41
WOODLANDS DR 16,WOODLANDS DR 16 Singapore,"Woodlands Drive 16, Woodlands, Northwest, 730548, Singapore",1.4319078,103.7958494,0.51
COMPASSVALE RD,COMPASSVALE RD Singapore,"Compassvale Road, Seng Kang, Northeast, 540239, Singapore",1.3916513,103.897983,0.31
WOODLANDS DR 73,WOODLANDS DR 73 Singapore,"Woodlands Drive 73, Woodlands, Northwest, 737942, Singapore",1.4418341,103.8052101,0.51
HOUGANG ST 31,HOUGANG ST 31 Singapore,"Hougang St 31, Hougang, Northeast, 534797, Singapore",1.3634769,103.888866,0.51
JURONG WEST ST 64,JURONG WEST ST 64 Singapore,"Jurong West Street 64, Jurong West, Southwest, 643668, Singapore",1.3416513,103.7037759,0.61
WOODLANDS DR 71,WOODLANDS DR 71 Singapore,"Woodlands Drive 71, Woodlands, Northwest, 730676, Singapore",1.439373,103.8004157,0.51
YISHUN ST 20,YISHUN ST 20 Singapore,"Yishun Street 20, Yishun, Northwest, 760291, Singapore",1.4360609,103.8358822,0.51
ADMIRALTY DR,ADMIRALTY DR Singapore,"Admiralty Drive, Sembawang, Northwest, 757714, Singapore",1.4503054,103.8162261,0.41
COMPASSVALE ST,COMPASSVALE ST Singapore,"Compassvale Street, Seng Kang, Northeast, 543297, Singapore",1.3942271,103.9010627,0.41
BEDOK RESERVOIR VIEW,BEDOK RESERVOIR VIEW Singapore,"Bedok Reservoir View, Longvale, Bedok, Southeast, 470760, Singapore",1.3366184,103.935556,0.51
YUNG SHENG RD,YUNG SHENG RD Singapore,"Yung Sheng Road, Jurong West, Southwest, 610182, Singapore",1.3342516,103.7228183,0.41
ADMIRALTY LINK,ADMIRALTY LINK Singapore,"Admiralty Link, Sembawang, Northwest, 750462, Singapore",1.4545055,103.8152222,0.41
SENGKANG EAST WAY,SENGKANG EAST WAY Singapore,"Sengkang East Way, Seng Kang, Northeast, 541317, Singapore",1.394451,103.8875501,0.51
ANG MO KIO ST 32,ANG MO KIO ST 32 Singapore,"Ang Mo Kio Street 32, Ang Mo Kio, Singapore, Central, 560351, Singapore",1.3649315,103.8501312,0.71
ANG MO KIO ST 52,ANG MO KIO ST 52 Singapore,"Ang Mo Kio Street 52, Ang Mo Kio, Singapore, Central, 569228, Singapore",1.3726738,103.8527965,0.71
BOON TIONG RD,BOON TIONG RD Singapore,"Boon  Tiong Road, Boon Tiong Aracadia, Bukit Merah, Singapore, Central, 163028, Singapore",1.2860313,103.8320238,0.385
JURONG WEST ST 62,JURONG WEST ST 62 Singapore,"Jurong West Street 62, Jurong West, Southwest, 640623, Singapore",1.3401794,103.6990407,0.61
ANCHORVALE LINK,ANCHORVALE LINK Singapore,"Anchorvale Link, Seng Kang, Northeast, 542319, Singapore",1.391592,103.8898937,0.41
CANBERRA LINK,CANBERRA LINK Singapore,"Canberra Link, Sembawang, Northwest, 750505, Singapore",1.4498823,103.8222532,0.41
COMPASSVALE CRES,COMPASSVALE CRES Singapore,"Compassvale Crescent, Seng Kang, Northeast, 543289, Singapore",1.3973003,103.8969179,0.41
CLEMENTI ST 12,CLEMENTI ST 12 Singapore,"Clementi Street 12, Sunset Way, Ulu Pandan, Northwest, 120105, Singapore",1.3228185,103.7700351,0.485
MONTREAL DR,MONTREAL DR Singapore,"Montreal Drive, Sembawang, Northwest, 757702, Singapore",1.4531328,103.8241965,0.41
WELLINGTON CIRCLE,WELLINGTON CIRCLE Singapore,"Wellington Circle, Sembawang, Northwest, 757702, Singapore",1.4522063,103.8206428,0.41
SENGKANG EAST RD,SENGKANG EAST RD Singapore,"Sengkang East Road, Seng Kang, Northeast, 540302, Singapore",1.3880164,103.8917557,0.41
JURONG WEST AVE 3,JURONG WEST AVE 3 Singapore,"Jurong West Avenue 3, Jurong West, Southwest, 641273, Singapore",1.35077,103.7031216,0.61
ANCHORVALE LANE,ANCHORVALE LANE Singapore,"Anchorvale Lane, Seng Kang, Northeast, 541311, Singapore",1.3908621,103.8837844,0.41
SENJA LINK,SENJA LINK Singapore,"Senja Link, Bukit Panjang, Northwest, 670631, Singapore",1.3863917,103.7632855,0.41
EDGEFIELD PLAINS,EDGEFIELD PLAINS Singapore,"Edgefield Plains, Punggol, Northeast, 820198, Singapore",1.3977589,103.9068192,0.41
ANCHORVALE DR,ANCHORVALE DR Singapore,"Anchorvale Drive, Seng Kang, Northeast, 541320, Singapore",1.3900519,103.8908764,0.41
SEGAR RD,SEGAR RD Singapore,"Segar Road, Bukit Panjang, Northwest, 677738, Singapore",1.3870559,103.7723041,0.31
FARRER PK RD,FARRER PK RD Singapore,"Farrer Park Road, Farrer Park View, Kallang, Singapore, Central, 217567, Singapore",1.3114531,103.8506904,0.31
PUNGGOL FIELD,PUNGGOL FIELD Singapore,"Punggol Field, Punggol, Northeast, 828867, Singapore",1.3958608,103.9103712,0.41
EDGEDALE PLAINS,EDGEDALE PLAINS Singapore,"Edgedale Plains, Punggol, Northeast, 828866, Singapore",1.3968124,103.9119597,0.41
ANCHORVALE RD,ANCHORVALE RD Singapore,"Anchorvale Road, Seng Kang, Northeast, 543351, Singapore",1.3936709,103.8873041,0.31
CANTONMENT CL,CANTONMENT CL Singapore,"Cantonment Close, Bukit Merah, Singapore, Central, 080013, Singapore",1.2750364,103.8402139,0.385
JLN MEMBINA,jalan MEMBINA Singapore,"Jalan Membina, Bukit Merah, Singapore, Central, 168731, Singapore",1.2859312,103.8272492,0.41
FERNVALE LANE,FERNVALE LANE Singapore,"Fernvale Lane, Fernvale, Central, 792443, Singapore",1.3907697,103.8737037,0.41
JURONG WEST ST 25,JURONG WEST ST 25 Singapore,"Jurong West Street 25, Jurong West, Southwest, 640276, Singapore",1.3539927,103.7041989,0.61
CLEMENTI ST 11,CLEMENTI ST 11 Singapore,"11, West Coast Place, Clementi, Southwest, 128104, Singapore",1.31395065,103.7581804,0.421
PUNGGOL FIELD WALK,PUNGGOL FIELD WALK Singapore,"Punggol Field Walk, Punggol, Northeast, 828749, Singapore",1.3910031,103.9134651,0.51
KLANG LANE,KLANG LANE Singapore,"Klang Lane, Rochor, Singapore, Central, 219924, Singapore",1.3084848,103.8522978,0.41
PUNGGOL CTRL,PUNGGOL central Singapore,"Punggol Central, Punggol, Northeast, 821256, Singapore",1.4084218,103.891931,0.41
JELEBU RD,JELEBU RD Singapore,"Jelebu Road, Bukit Panjang, Northwest, 677743, Singapore",1.3782362,103.7647516,0.31
BUANGKOK CRES,BUANGKOK CRES Singapore,"Buangkok Crescent, Hougang, Northeast, 530991, Singapore",1.3841004,103.883398,0.41
WOODLANDS DR 75,WOODLANDS DR 75 Singapore,"Woodlands border checkpoint (motorcycles, manual clearing), Woodlands, Northwest, 738203, Singapore",1.445757,103.7671967,0.581685602
BT BATOK WEST AVE 5,bukit BATOK WEST AVE 5 Singapore,"Bukit Batok West Avenue 5, Bukit Gombak, Bukit Batok, Southwest, 650395, Singapore",1.3669461,103.7508364,0.71
JELLICOE RD,JELLICOE RD Singapore,"Jellicoe Road, Kallang, Singapore, Central, 200809, Singapore",1.3083328,103.8626991,0.31
PUNGGOL DR,PUNGGOL DR Singapore,"Punggol Drive, Punggol, Northeast, 822619, Singapore",1.4035559,103.9107907,0.41
JURONG WEST ST 24,JURONG WEST ST 24 Singapore,"Jurong West Street 24, Jurong West, Southwest, 641272, Singapore",1.3497994,103.7060916,0.61
SEMBAWANG WAY,SEMBAWANG WAY Singapore,"Sembawang Way, Sembawang, Northwest, 759775, Singapore",1.4491896,103.8192443,0.41
FERNVALE RD,FERNVALE RD Singapore,"Fernvale Road, Fernvale, Central, 794441, Singapore",1.3921653,103.8756703,0.31
BUANGKOK LINK,BUANGKOK LINK Singapore,"Buangkok Link, Hougang, Northeast, 536980, Singapore",1.3793388,103.8815068,0.41
FERNVALE LINK,FERNVALE LINK Singapore,"Fernvale Link, Fernvale, Central, 793439, Singapore",1.3918285,103.8791742,0.41
JLN TIGA,jalan TIGA Singapore,"Jalan Tiga, Geylang, Southeast, 390041, Singapore",1.3073387,103.8847567,0.41
YUAN CHING RD,YUAN CHING RD Singapore,"Yuan Ching Road, Jurong East, Southwest, 618664, Singapore",1.3305766,103.7249185,0.41
COMPASSVALE LINK,COMPASSVALE LINK Singapore,"Compassvale Link, Seng Kang, Northeast, 540276, Singapore",1.3823822,103.8950052,0.41
MARINE PARADE CTRL,MARINE PARADE central Singapore,"Marine Parade Central, Marine Parade Promenade, Marine Parade, Southeast, 440080, Singapore",1.3022315,103.907662,0.51
COMPASSVALE BOW,COMPASSVALE BOW Singapore,"Compassvale Bow, Seng Kang, Northeast, 541265, Singapore",1.3815174,103.8949228,0.41
PUNGGOL RD,PUNGGOL RD Singapore,"Punggol Road, Punggol, Northeast, 820674, Singapore",1.4091032,103.9094426,0.31
BEDOK CTRL,BEDOK central Singapore,"Bedok Central, Bedok, Southeast, 467351, Singapore",1.3248789,103.9326995,0.41
PUNGGOL EAST,PUNGGOL EAST Singapore,"Punggol East, Punggol, Northeast, 821658, Singapore",1.3992183,103.9194024,0.41
SENGKANG CTRL,SENGKANG central Singapore,"Sengkang Central, Seng Kang, Northeast, 544700, Singapore",1.3886361,103.8944854,0.41
TAMPINES CTRL 7,TAMPINES central 7 Singapore,"Tampines Central 7, Tampines, Northeast, 528595, Singapore",1.3589169,103.9419071,0.51
SENGKANG WEST AVE,SENGKANG WEST AVE Singapore,"Sengkang West Avenue, Seng Kang, Northeast, 541311, Singapore",1.3915181,103.8825691,0.51
PUNGGOL PL,PUNGGOL PL Singapore,"Punggol Place, Punggol, Northeast, 828845, Singapore",1.4068843,103.9052635,0.41
CANTONMENT RD,CANTONMENT RD Singapore,"Cantonment Road, Downtown Core, Singapore, Central, 089058, Singapore",1.2728462,103.8421747,0.31
GHIM MOH LINK,GHIM MOH LINK Singapore,"Ghim Moh Link, Rochester Hill, Queenstown, Southwest, 271022, Singapore",1.3097048,103.7853698,0.51
SIMEI LANE,SIMEI LANE Singapore,"Simei Lane, Simei, Southeast, 520224, Singapore",1.3432835,103.9583046,0.385
YISHUN ST 41,YISHUN ST 41 Singapore,"Yishun Street 41, Yishun, Northwest, 767998, Singapore",1.4189997,103.8460327,0.51
TELOK BLANGAH ST 31,TELOK BLANGAH ST 31 Singapore,"Telok Blangah Street 31, Alexandra, Southwest, 101080, Singapore",1.272244,103.8055261,0.61
JLN KAYU,jalan KAYU Singapore,"Jalan Kayu, Seng Kang, Central, 799209, Singapore",1.4006451,103.872238,0.41
LOR 1A TOA PAYOH,lorong 1A TOA PAYOH Singapore,"Lorong 1A Toa Payoh, Toa Payoh, Singapore, Central, 311138, Singapore",1.3370811,103.8453088,0.61
PUNGGOL WALK,PUNGGOL WALK Singapore,"Punggol Walk, Punggol, Northeast, 824211, Singapore",1.401513,103.8990471,0.41
SENGKANG WEST WAY,SENGKANG WEST WAY Singapore,"Sengkang West Way, Fernvale, Central, 790461, Singapore",1.3951619,103.8720973,0.51
BUANGKOK GREEN,BUANGKOK GREEN Singapore,"Buangkok Green, Hougang, Northeast, 530566, Singapore",1.3819455,103.8886295,0.41
PUNGGOL WAY,PUNGGOL WAY Singapore,"Punggol Way, Punggol, Northeast, 822405, Singapore",1.4162016,103.9023164,0.41
YISHUN ST 31,YISHUN ST 31 Singapore,"Yishun Street 31, Yishun, Northwest, 762382, Singapore",1.4323238,103.8471193,0.51
TECK WHYE CRES,TECK WHYE CRES Singapore,"Teck Whye Crescent, Choa Chu Kang, Southwest, 680166, Singapore",1.3827631,103.7526399,0.51
ANG MO KIO ST 61,ANG MO KIO ST 61 Singapore,"Ang Mo Kio Street 61, Ang Mo Kio, Singapore, Central, 560632, Singapore",1.3804525,103.8414502,0.71
BEDOK RESERVOIR CRES,BEDOK RESERVOIR CRES Singapore,"Bedok Reservoir Crescent, Bedok, Northeast, 470746, Singapore",1.3370607,103.9209085,0.51
UPP SERANGOON CRES,upper SERANGOON CRES Singapore,"Upper Serangoon Crescent, Hougang, Northeast, 534032, Singapore",1.3775486,103.9025749,0.51
UPP SERANGOON VIEW,upper SERANGOON VIEW Singapore,"Upper Serangoon View, Hougang, Northeast, 530476, Singapore",1.3768691,103.9035158,0.51
SUMANG LINK,SUMANG LINK Singapore,"Sumang Link, Punggol, Northeast, 828674, Singapore",1.4111794,103.8985983,0.41
MONTREAL LINK,MONTREAL LINK Singapore,"Montreal Link, Sembawang, Northwest, 752592, Singapore",1.4511811,103.8264121,0.41
SENGKANG EAST AVE,SENGKANG EAST AVE Singapore,"Sengkang East Avenue, Seng Kang, Northeast, 544811, Singapore",1.3817543,103.9034783,0.51
ANCHORVALE CRES,ANCHORVALE CRES Singapore,"Anchorvale Crescent, Seng Kang, Northeast, 544629, Singapore",1.3990256,103.8922037,0.41
ANCHORVALE ST,ANCHORVALE ST Singapore,"Anchorvale Street, Seng Kang, Central, 544965, Singapore",1.3976857,103.8848666,0.41
TAMPINES CTRL 8,TAMPINES central 8 Singapore,"Tampines Central 8, Tampines, Northeast, 521519, Singapore",1.3570312,103.9409243,0.51
TAMPINES AVE 1,TAMPINES AVE 1 Singapore,"Tampines Avenue 1, Tampines, Northeast, 520934, Singapore",1.345099,103.9406584,0.51
YISHUN AVE 1,YISHUN AVE 1 Singapore,"Yishun Avenue 1, Springleaf, Central, 769139, Singapore",1.411067,103.8332536,0.51
YISHUN ST 51,YISHUN ST 51 Singapore,"Yishun Street 51, Yishun, Northwest, 767998, Singapore",1.4190379,103.8455479,0.51
KEAT HONG CL,KEAT HONG CL Singapore,"Keat Hong Close, Choa Chu Kang, Southwest, 680803, Singapore",1.374331,103.7431257,0.51
CHOA CHU KANG AVE 7,CHOA CHU KANG AVE 7 Singapore,"Choa Chu Kang Avenue 7, Choa Chu Kang, Southwest, 681815, Singapore",1.3761762,103.7463133,0.71
HOUGANG ST 32,HOUGANG ST 32 Singapore,"Hougang Street 32, Hougang, Northeast, 531377, Singapore",1.363424,103.8944824,0.51
JURONG WEST CTRL 3,JURONG WEST central 3 Singapore,"Jurong West Central 3, Jurong West, Southwest, 641665, Singapore",1.3398009,103.7039812,0.61
SUMANG WALK,SUMANG WALK Singapore,"Sumang Walk, Punggol, Northeast, 821217, Singapore",1.4031915,103.894697,0.41
DAWSON RD,DAWSON RD Singapore,"Dawson Road, Queenstown, Singapore, Central, 141079, Singapore",1.2942985,103.8105638,0.31
FERNVALE ST,FERNVALE ST Singapore,"Fernvale Street, Seng Kang, Central, 790465, Singapore",1.3987034,103.876534,0.41
TAMPINES ST 86,TAMPINES ST 86 Singapore,"Tampines Street 86, Q bay Residences, Tampines, Northeast, 524879, Singapore",1.3513163,103.9282262,0.51
KEAT HONG LINK,KEAT HONG LINK Singapore,"Keat Hong Link, Choa Chu Kang, Southwest, 681820, Singapore",1.3757393,103.7501898,0.51
ALJUNIED AVE 2,ALJUNIED AVE 2 Singapore,"Aljunied Avenue 2, Geylang East Central, Geylang, Southeast, 380118, Singapore",1.320395,103.8876069,0.51
CANBERRA CRES,CANBERRA CRES Singapore,"Canberra Crescent, Sembawang, Northwest, 750114, Singapore",1.4471422,103.8295351,0.41
